ID,Address,Boro,Zip,Block,Lot,BIN,CB,NumFloors,ConstructionYear,ComplaintNum,InspectionDate,InspectorNameBadge,ComplaintDispostion,NOV_Issued,NOV_Num,EmgncyOrderIssued,EmgncyOrderType,Refer_FEU,Comments,Lat,Long,X,Y,CycloMedia
1,1 DIVISION STREET,MN,10038,281,64,1003528,103,5,1900,1559158,12/29/2020,Butler/2770,I2,N,,N,,N,,40.713871,-73.99727631,985005.4621,199355.9494,"https://nycdob.github.io/CycloMedia/simple#985005.462059811,199355.949434981"
2,104 2 AVENUE,MN,10003,448,1,1006262,103,8,1901,1559175,1/7/2021,Butler/2770,I2,N,,N,,N,,40.72740936,-73.98815918,987532.2743,204288.599,"https://nycdob.github.io/CycloMedia/simple#987532.274263382,204288.599018469"
3,1057 LEXINGTON AVENUE,MN,10021,1410,23,1043144,108,5,1902,1559242,1/21/2021,Butler/2770,I2,N,,N,,N,,40.77238083,-73.96044159,995207.2704,220675.4032,"https://nycdob.github.io/CycloMedia/simple#995207.270396307,220675.403187066"
4,113 1 AVENUE,MN,10003,448,27,1006283,103,5,1920,1559176,1/7/2021,Butler/2770,I2,N,,N,,N,,40.72700882,-73.98609161,988105.3591,204142.7538,"https://nycdob.github.io/CycloMedia/simple#988105.359075218,204142.75383772"
5,116 2 AVENUE,MN,10003,448,7,1006082,103,5,1920,1559172,1/7/2021,Butler/2770,I2,N,,N,,N,,40.72774124,-73.98784637,987618.9581,204409.525,"https://nycdob.github.io/CycloMedia/simple#987618.958145142,204409.524957731"
6,116 HAMILTON PLACE,MN,10031,2074,25,1061858,109,7,1910,1559226,1/22/2021,Butler/2770,I2,N,,N,,N,,40.82384109,-73.94963837,998188.7644,239425.699,"https://nycdob.github.io/CycloMedia/simple#998188.764433309,239425.69901973"
7,118 2 AVENUE,MN,10003,449,1,1006307,103,5,1930,1559177,1/7/2021,Butler/2770,I2,N,,N,,N,,40.72793961,-73.98770142,987659.1231,204481.803,"https://nycdob.github.io/CycloMedia/simple#987659.123091057,204481.80302839"
8,120 CHRISTOPHER STREET,MN,10014,588,45,1010034,102,5,1890,1559193,12/21/2020,Butler/2770,I2,N,,N,,N,,40.73299026,-74.00559235,982700.5087,206321.7222,"https://nycdob.github.io/CycloMedia/simple#982700.508664474,206321.722248808"
9,1205 1 AVENUE,MN,10065,1440,23,1085182,108,5,1910,1559277,1/21/2021,Butler/2770,I2,N,,N,,N,2 buildings remain on lot (1205 and 1207) - 1205 is corner,40.76355564,-73.95932362,995518.4184,217460.2364,"https://nycdob.github.io/CycloMedia/simple#995518.418396056,217460.236389056"
10,1205 1 AVENUE,MN,10065,1440,23,1085181,108,5,1910,1559274,1/21/2021,Butler/2770,H1,N,,N,,N,2 buildings remain on lot (1205 and 1207) - 1205 is corner,40.76354599,-73.95933569,995515.0762,217456.719,"https://nycdob.github.io/CycloMedia/simple#995515.07621114,217456.719007641"
11,1205 1 AVENUE,MN,10065,1440,23,1085180,108,5,1910,1559272,1/21/2021,Butler/2770,H1,N,,N,,N,2 buildings remain on lot (1205 and 1207) - 1205 is corner,40.7637291,-73.95937347,995504.5795,217523.4272,"https://nycdob.github.io/CycloMedia/simple#995504.579512969,217523.427207559"
12,129 AVENUE D,MN,10009,378,31,1004532,103,5,1910,1559160,1/5/2021,Butler/2770,I2,N,,N,,N,,40.72430038,-73.97592926,990922.3131,203156.596,"https://nycdob.github.io/CycloMedia/simple#990922.313086972,203156.596033141"
13,1290 MADISON AVENUE,MN,10128,1503,56,1047037,108,7,1898,1559249,1/15/2021,Butler/2770,A8,Y,39034972N,Y,Shed,N,IED Sidewalk shed at exp 1 and 4. ,40.78454971,-73.95633698,996341.9542,225109.4754,"https://nycdob.github.io/CycloMedia/simple#996341.954150558,225109.47535564"
14,139 ORCHARD STREET,MN,10002,415,67,1005497,103,17,2009,1559163,12/30/2020,Butler/2770,I2,N,,N,,N,,40.72013092,-73.98950958,987158.3059,201636.7913,"https://nycdob.github.io/CycloMedia/simple#987158.305851221,201636.79132998"
15,145 EAST 82 STREET,MN,10028,1511,20,1047610,108,5,1920,1559252,1/21/2021,Butler/2770,I2,N,,N,,N,,40.77703094,-73.95717621,996110.886,222370.0189,"https://nycdob.github.io/CycloMedia/simple#996110.886043131,222370.018892303"
16,1494 1 AVENUE,MN,10075,1472,47,1046006,108,5,1910,1559247,1/21/2021,Butler/2770,I2,N,,N,,N,,40.7714386,-73.95298767,997272.0389,220333.1375,"https://nycdob.github.io/CycloMedia/simple#997272.038904548,220333.137467399"
17,150 EAST 110 STREET,MN,10029,1637,52,1052165,111,5,1910,1559276,1/13/2021,Butler/2770,A8,Y,39034803M,Y,Shed,N,IED Shed on 2 sides of building,40.79455948,-73.94438934,999648.2878,228758.2519,"https://nycdob.github.io/CycloMedia/simple#999648.287760973,228758.251850724"
18,150 EAST 116 STREET,MN,10029,1643,52,1052262,111,5,1930,1559283,1/13/2021,Butler/2770,I2,N,,N,,N,,40.79832077,-73.94164276,1000407.869,230129.1146,"https://nycdob.github.io/CycloMedia/simple#1000407.86859089,230129.114594564"
19,152 7 AVENUE,MN,10011,769,34,1013980,104,4,1901,1559208,12/28/2020,Butler/2770,I2,N,,N,,N,,40.74185944,-73.99765015,984901.5518,209553.0032,"https://nycdob.github.io/CycloMedia/simple#984901.551834553,209553.003187805"
20,160 2 AVENUE,MN,10003,452,1,1006433,103,5,1900,1559178,1/5/2021,Butler/2770,I2,N,,N,,N,,40.72974014,-73.98642731,988012.1595,205137.844,"https://nycdob.github.io/CycloMedia/simple#988012.159458473,205137.844039142"
21,1619 AMSTERDAM AVENUE,MN,10031,2057,29,1061193,109,7,1900,1559221,1/22/2021,Butler/2770,I2,N,,N,,N,,40.82217026,-73.9495697,998208.1204,238816.9663,"https://nycdob.github.io/CycloMedia/simple#998208.120365724,238816.966313317"
22,162 1 AVENUE,MN,10009,437,8,1005898,103,4,1900,1559170,1/5/2021,Butler/2770,I2,N,,N,,N,,40.72858047,-73.98428345,988606.4214,204715.4394,"https://nycdob.github.io/CycloMedia/simple#988606.421393305,204715.439372137"
23,1621 LEXINGTON AVENUE,MN,10029,1630,21,1051884,111,5,1930,1559267,1/21/2021,Butler/2770,A8,Y,39035250X,Y,Shed,N,Shed section on 1 side of building,40.78973007,-73.94786072,998688.1535,226998.1405,"https://nycdob.github.io/CycloMedia/simple#998688.153526381,226998.140541553"
24,1627 AMSTERDAM AVENUE,MN,10031,2057,56,1061214,109,7,1896,1559222,1/22/2021,Butler/2770,I2,N,,N,,N,,40.82241821,-73.94940186,998254.5215,238907.3303,"https://nycdob.github.io/CycloMedia/simple#998254.521519631,238907.330305815"
25,1651 LEXINGTON AVENUE,MN,10029,1632,22,1051955,111,5,1910,1559269,1/12/2021,Butler/2770,I2,N,,N,,N,,40.79093933,-73.94693756,998943.5169,227438.869,"https://nycdob.github.io/CycloMedia/simple#998943.516860798,227438.868990809"
26,1656 2 AVENUE,MN,10028,1548,49,1050017,108,4,1910,1559255,1/15/2021,Butler/2770,I2,N,,N,,N,,40.77761841,-73.9515686,997663.8534,222584.863,"https://nycdob.github.io/CycloMedia/simple#997663.853409633,222584.862950817"
27,1681 1 AVENUE,MN,10028,1550,23,1050050,108,4,1925,1559256,1/15/2021,Butler/2770,I2,N,,N,,N,,40.777771,-73.94908905,998350.5522,222640.8458,"https://nycdob.github.io/CycloMedia/simple#998350.552167475,222640.84577848"
28,1756 1 AVENUE,MN,10128,1571,1,1050746,108,5,1920,1559263,1/13/2021,Butler/2770,I2,N,,N,,N,,40.7800293,-73.94669342,999013.5384,223464.0151,"https://nycdob.github.io/CycloMedia/simple#999013.538374305,223464.015063897"
29,1759 LEXINGTON AVENUE,MN,10029,1637,21,1052148,111,5,1910,1559275,1/12/2021,Butler/2770,A8,Y,39034782M,Y,Shed,N,IED shed for 2 sides of building,40.79430008,-73.94458008,999595.5343,228663.71,"https://nycdob.github.io/CycloMedia/simple#999595.534257561,228663.710045055"
30,177 SPRING STREET,MN,10012,502,44,1007739,102,5,1878,1559184,1/11/2021,Butler/2770,I2,N,,N,,N,reach out to ownership who remediated broken window at 4th fl.,40.7249794,-74.00240326,983584.2644,203403.0768,"https://nycdob.github.io/CycloMedia/simple#983584.264442891,203403.076839387"
31,179 WAVERLY PLACE,MN,10014,610,42,1010679,102,5,1926,1559195,12/21/2020,Butler/2770,I2,N,,N,,N,,40.73431015,-74.0011673,983926.8894,206802.5523,"https://nycdob.github.io/CycloMedia/simple#983926.889413804,206802.552323893"
32,1845 ADAM C POWELL BLVD,MN,10026,1822,7502,1054974,110,6,1915,1559292,1/14/2021,Butler/2770,I2,N,,N,,N,,40.80081177,-73.95378113,997046.6174,231034.6666,"https://nycdob.github.io/CycloMedia/simple#997046.617439389,231034.66658923"
33,1854 2 AVENUE,MN,10128,1558,49,1050341,108,6,1926,1559259,1/13/2021,Butler/2770,I2,N,,N,,N,,40.78396988,-73.94687653,998961.9558,224899.671,"https://nycdob.github.io/CycloMedia/simple#998961.95580031,224899.670985222"
34,186 BLEECKER STREET,MN,10012,526,56,1077801,102,5,1910,1559237,1/11/2021,Butler/2770,A8,Y,39034657N,N,,N,,40.7289505,-74.00118256,983922.6338,204849.8646,"https://nycdob.github.io/CycloMedia/simple#983922.633844882,204849.864628226"
35,189 EAST BROADWAY,MN,10002,284,16,1003616,103,5,1900,1559159,12/30/2020,Butler/2770,I2,N,,N,,N,,40.71395874,-73.98882294,987348.9272,199388.1016,"https://nycdob.github.io/CycloMedia/simple#987348.927189142,199388.101601645"
36,19 PELL STREET,MN,10013,162,25,1077442,103,5,1900,1559234,12/29/2020,Butler/2770,I2,N,,N,,N,,40.71472168,-73.99815369,984762.2257,199665.8714,"https://nycdob.github.io/CycloMedia/simple#984762.225669637,199665.871387303"
37,196 1 AVENUE,MN,10009,439,8,1005972,103,5,1900,1559171,1/5/2021,Butler/2770,I2,N,,N,,N,,40.72980118,-73.98335266,988864.3162,205160.2298,"https://nycdob.github.io/CycloMedia/simple#988864.316218719,205160.229821146"
38,1964 3 AVENUE,MN,10029,1635,40,1052086,111,4,1900,1559271,1/12/2021,Butler/2770,I2,N,,N,,N,,40.79288864,-73.94406891,999737.3995,228149.5638,"https://nycdob.github.io/CycloMedia/simple#999737.399459392,228149.563763648"
39,1966 3 AVENUE,MN,10029,1636,33,1052113,111,4,1920,1559273,1/12/2021,Butler/2770,I2,N,,N,,N,,40.79309845,-73.9439621,999766.9256,228226.0236,"https://nycdob.github.io/CycloMedia/simple#999766.92564705,228226.02358447"
40,2004 3 AVENUE,MN,10029,1638,33,1082323,111,4,1900,1559266,1/12/2021,Butler/2770,I2,N,,N,,N,,40.79433256,-73.94289048,1000063.357,228675.8442,"https://nycdob.github.io/CycloMedia/simple#1000063.35714081,228675.844207138"
41,2004 3 AVENUE,MN,10029,1638,33,1082322,111,4,1900,1559264,1/12/2021,Butler/2770,I2,N,,N,,N,,40.79429601,-73.94292535,1000053.711,228662.5214,"https://nycdob.github.io/CycloMedia/simple#1000053.71083464,228662.52139914"
42,2004 3 AVENUE,MN,10029,1638,33,1082321,111,4,1900,1559261,1/12/2021,Butler/2770,I2,N,,N,,N,,40.79441833,-73.94300079,1000032.794,228707.0731,"https://nycdob.github.io/CycloMedia/simple#1000032.79355364,228707.073147312"
43,2053 5 AVENUE,MN,10035,1751,69,1054128,111,7,1910,1559288,12/22/2020,Butler/2770,I2,N,,N,,N,,40.80744934,-73.94110107,1000555.611,233455.0725,"https://nycdob.github.io/CycloMedia/simple#1000555.61107755,233455.072509557"
44,2082 MADISON AVENUE,MN,10037,1756,14,1054307,111,5,1900,1559289,12/15/2020,Butler/2770,I2,N,,N,,N,,40.80973053,-73.93804932,1001399.851,234286.7733,"https://nycdob.github.io/CycloMedia/simple#1001399.85085888,234286.773273975"
45,2096 MADISON AVENUE,MN,10037,1756,59,1054334,111,5,1920,1559290,12/15/2020,Butler/2770,I2,N,,N,,N,,40.81016922,-73.9377594,1001479.994,234446.6604,"https://nycdob.github.io/CycloMedia/simple#1001479.9940713,234446.660421386"
46,2102 3 AVENUE,MN,10029,1643,33,1052249,111,5,1910,1559282,1/13/2021,Butler/2770,I2,N,,N,,N,,40.79750824,-73.94068146,1000674.226,229833.2605,"https://nycdob.github.io/CycloMedia/simple#1000674.22566973,229833.260527477"
47,2119 AMSTERDAM AVENUE,MN,10032,2111,44,1062644,112,5,1901,1559228,12/22/2020,Butler/2770,A8,Y,39033810X,Y,Shed,N,IED for Shed on 2 sides of Bldg. - Defective stone around windows,40.83787918,-73.93797302,1001413.711,244542.3607,"https://nycdob.github.io/CycloMedia/simple#1001413.71106739,244542.360702395"
48,213 2 AVENUE,MN,10003,469,37,1006911,103,5,1900,1559181,1/7/2021,Butler/2770,I2,N,,N,,N,,40.73188019,-73.98565674,988225.601,205917.5649,"https://nycdob.github.io/CycloMedia/simple#988225.600960717,205917.564920649"
49,215 1 AVENUE,MN,10003,454,36,1006490,103,5,1900,1559180,1/19/2021,Butler/2770,A8,Y,39035045R,N,,N,,40.73067093,-73.98343658,988840.9974,205477.1022,"https://nycdob.github.io/CycloMedia/simple#988840.997367725,205477.102218896"
50,2150 FREDRICK DOUGLASS BL,MN,10026,1922,1,1058363,110,5,1910,1559190,1/6/2021,Butler/2770,I2,N,,N,,N,,40.80456161,-73.95497131,996716.4003,232400.6931,"https://nycdob.github.io/CycloMedia/simple#996716.400252059,232400.693056643"
51,2232 ADAM C POWELL BLVD,MN,10027,1937,36,1081609,110,5,1910,1559258,12/23/2020,Butler/2770,A8,Y,39033857N,N,,N,Multiple Bldgs on lot - corner is 2240,40.81335068,-73.94558716,999312.3741,235604.3366,"https://nycdob.github.io/CycloMedia/simple#999312.374062717,235604.336583734"
52,2262 2 AVENUE,MN,10035,1688,1,1052946,111,1,1907,1559285,1/6/2021,Butler/2770,I2,N,,N,,N,,40.79701996,-73.93736267,1001593.244,229656.003,"https://nycdob.github.io/CycloMedia/simple#1001593.24351673,229656.003007978"
53,2300 ADAM C POWELL BLVD,MN,10030,1941,29,1058892,110,5,1910,1559201,12/22/2020,Butler/2770,I2,N,,N,,N,,40.81560898,-73.94397736,999757.4555,236427.3966,"https://nycdob.github.io/CycloMedia/simple#999757.455521643,236427.396617398"
54,234 WEST 4 STREET,MN,10014,620,71,1011216,102,5,1891,1559197,12/21/2020,Butler/2770,I2,N,,N,,N,,40.73432922,-74.00322723,983356.0044,206809.5143,"https://nycdob.github.io/CycloMedia/simple#983356.004400715,206809.514252231"
55,2441 ADAM C POWELL BLVD,MN,10030,2011,1,1060101,110,7,1910,1559209,12/23/2020,Butler/2770,I2,N,,N,,N,Local Law 11 building - Shed in place - facde cleaning active with permit. ,40.8197403,-73.93994141,1000873.574,237933.3247,"https://nycdob.github.io/CycloMedia/simple#1000873.5740243,237933.324707896"
56,2536 BROADWAY,MN,10025,1242,42,1033686,107,5,1910,1559236,1/21/2021,Butler/2770,I2,N,,N,,N,,40.79372025,-73.97196198,992013.8677,228448.8463,"https://nycdob.github.io/CycloMedia/simple#992013.867662385,228448.846301556"
57,26 7 AVENUE SOUTH,MN,10014,583,39,1009801,102,5,1887,1559189,1/4/2021,Butler/2770,I2,N,,N,,N,,40.73044968,-74.00492859,982884.4135,205396.0988,"https://nycdob.github.io/CycloMedia/simple#982884.413480386,205396.098771974"
58,2643 BROADWAY,MN,10025,1872,11,1056480,107,7,1914,1559303,1/20/2021,Butler/2770,I2,N,,N,,N,,40.79758072,-73.97016144,992511.9418,229855.5141,"https://nycdob.github.io/CycloMedia/simple#992511.941797465,229855.514091894"
59,2659 BROADWAY,MN,10025,1873,10,1056504,107,7,1910,1559304,1/20/2021,Butler/2770,I2,N,,N,,N,,40.79816818,-73.9696579,992651.2854,230069.594,"https://nycdob.github.io/CycloMedia/simple#992651.2853508,230069.594044313"
60,2670 BROADWAY,MN,10025,1873,42,1056517,107,7,1920,1559305,1/20/2021,Butler/2770,I2,N,,N,,N,,40.79814911,-73.96872711,992908.9981,230062.7368,"https://nycdob.github.io/CycloMedia/simple#992908.998089969,230062.736774564"
61,2701 BROADWAY,MN,10025,1875,10,1056562,107,8,1910,1559307,1/20/2021,Butler/2770,I2,N,,N,,N,,40.79944992,-73.96880341,992887.7038,230536.6597,"https://nycdob.github.io/CycloMedia/simple#992887.703841224,230536.659711227"
62,276 BROOME STREET,MN,10002,414,25,1005464,103,5,1900,1559162,12/29/2020,Butler/2770,I2,N,,N,,N,,40.71855927,-73.99107361,986724.8195,201064.1432,"https://nycdob.github.io/CycloMedia/simple#986724.81951347,201064.14319706"
63,2794 BROADWAY,MN,10025,1879,61,1056672,107,6,1925,1559309,1/20/2021,Butler/2770,I2,N,,N,,N,,40.80265045,-73.96721649,993326.6334,231702.8847,"https://nycdob.github.io/CycloMedia/simple#993326.63340956,231702.884740978"
64,2819 8 AVENUE,MN,10039,2046,7,1060854,110,7,1910,1559219,12/23/2020,Butler/2770,I2,N,,N,,N,,40.82632828,-73.93979645,1000912.047,240333.5916,"https://nycdob.github.io/CycloMedia/simple#1000912.04671639,240333.5915609"
65,288 GRAND STREET,MN,10002,418,50,1005575,103,5,1910,1559168,12/29/2020,Butler/2770,I2,N,,N,,N,,40.71789932,-73.99224091,986401.2611,200823.6722,"https://nycdob.github.io/CycloMedia/simple#986401.261105478,200823.672221303"
66,29 BEDFORD STREET,MN,10014,528,37,1008394,102,5,1888,1559186,1/4/2021,Butler/2770,I2,N,,N,,N,,40.7292099,-74.00380707,983195.2278,204944.3927,"https://nycdob.github.io/CycloMedia/simple#983195.227819383,204944.392654389"
67,291 BROOME STREET,MN,10002,418,44,1005570,103,6,1900,1559167,12/29/2020,Butler/2770,I2,N,,N,,N,,40.71844101,-73.99195862,986479.4955,201021.0337,"https://nycdob.github.io/CycloMedia/simple#986479.495529056,201021.033703223"
68,300 WEST 106 STREET,MN,10025,1891,57,1057241,107,7,1899,1559188,1/20/2021,Butler/2770,I2,N,,N,,N,,40.80158997,-73.96897888,992838.846,231316.3373,"https://nycdob.github.io/CycloMedia/simple#992838.8459993,231316.337285727"
69,351 3 AVENUE,MN,10010,906,55,1019844,106,5,1920,1559210,1/19/2021,Butler/2770,I2,N,,N,,N,,40.74044037,-73.98155212,989362.5321,209036.5203,"https://nycdob.github.io/CycloMedia/simple#989362.532085806,209036.520296887"
70,388 BROOME STREET,MN,10013,480,1,1007177,102,7,1900,1559183,1/11/2021,Butler/2770,I2,N,,N,,N,,40.72066116,-73.99664307,985180.9161,201829.8178,"https://nycdob.github.io/CycloMedia/simple#985180.916105226,201829.817846805"
71,40 MARKET STREET,MN,10002,275,27,1003285,103,5,1900,1559156,12/30/2020,Butler/2770,I2,N,,N,,N,,40.71244049,-73.99411774,985881.1257,198834.8143,"https://nycdob.github.io/CycloMedia/simple#985881.125662804,198834.814322397"
72,45 ST NICHOLAS AVENUE,MN,10026,1822,15,1054981,110,5,1900,1559293,1/6/2021,Butler/2770,I2,N,,N,,N,,40.80014038,-73.95285034,997304.4489,230790.1933,"https://nycdob.github.io/CycloMedia/simple#997304.448944718,230790.193324894"
73,450 9 AVENUE,MN,10018,759,1,1082250,104,5,1910,1559260,12/28/2020,Butler/2770,I2,N,,N,,N,,40.75423813,-73.99529266,985554.5856,214062.9827,"https://nycdob.github.io/CycloMedia/simple#985554.585633472,214062.982684895"
74,451 3 AVENUE,MN,10016,912,1,1020028,106,4,1920,1559211,1/19/2021,Butler/2770,I2,N,,N,,N,,40.74380112,-73.97913361,990032.4399,210261.0986,"https://nycdob.github.io/CycloMedia/simple#990032.439866722,210261.098556399"
75,463 WEST 35 STREET,MN,10018,733,1,1012864,104,5,1930,1559205,12/28/2020,Butler/2770,I2,N,,N,,N,,40.75521851,-73.99828339,984725.9813,214420.1365,"https://nycdob.github.io/CycloMedia/simple#984725.981319562,214420.136498138"
76,468 WEST 51 STREET,MN,10019,1060,61,1026704,104,4,1910,1559215,1/14/2021,Butler/2770,I2,N,,N,,N,,40.76509857,-73.99114227,986704.0728,218019.8845,"https://nycdob.github.io/CycloMedia/simple#986704.072835803,218019.884547979"
77,477 WEST 142 STREET,MN,10031,2058,29,1061246,109,5,1897,1559223,1/22/2021,Butler/2770,A8,Y,39035270N,Y,Shed,N,sidewalk shed on exposure 1,40.82342148,-73.94867706,998454.9115,239272.9746,"https://nycdob.github.io/CycloMedia/simple#998454.91153881,239272.974587649"
78,48 3 AVENUE,MN,10003,556,28,1008975,103,5,1900,1559187,1/19/2021,Butler/2770,I2,N,,N,,N,,40.7309494,-73.98930359,987214.9245,205578.3048,"https://nycdob.github.io/CycloMedia/simple#987214.924504384,205578.304772392"
79,5 AVENUE A,MN,10009,429,42,1005752,103,4,1900,1559169,12/29/2020,Butler/2770,A8,Y,39034031L,N,,N,,40.72256088,-73.98641205,988016.7946,202522.2184,"https://nycdob.github.io/CycloMedia/simple#988016.794619799,202522.218364894"
80,50 MORNINGSIDE AVENUE,MN,10026,1945,61,1059109,110,7,1929,1559206,1/6/2021,Butler/2770,I2,N,,N,,N,,40.80722046,-73.95662689,996257.5803,233369.1744,"https://nycdob.github.io/CycloMedia/simple#996257.58030355,233369.174387395"
81,51 BANK STREET,MN,10014,624,53,1011388,102,6,1898,1559198,12/21/2020,Butler/2770,A8,Y,39033688L,N,,N,,40.73698044,-74.00390625,983167.8653,207775.4447,"https://nycdob.github.io/CycloMedia/simple#983167.865341306,207775.444735065"
82,55 MARKET STREET,MN,10002,276,21,1003299,103,6,1920,1559157,12/30/2020,Butler/2770,A8,Y,39034126Y,Y,Shed,N,IED shed at exp 2 (by exp 1 and 2 corner) - bricks by windows,40.71166992,-73.99452209,985769.0455,198554.0649,"https://nycdob.github.io/CycloMedia/simple#985769.045506388,198554.064883888"
83,569 HUDSON STREET,MN,10014,634,67,1011922,102,4,1836,1559200,12/21/2020,Butler/2770,I2,N,,N,,N,,40.73590851,-74.00624847,982518.7452,207384.9445,"https://nycdob.github.io/CycloMedia/simple#982518.745248467,207384.944531813"
84,593 10 AVENUE,MN,10036,1072,29,1079231,104,5,1900,1559246,1/14/2021,Butler/2770,A8,Y,39034897M,N,,N,,40.76062012,-73.99523163,985571.3678,216388.1503,"https://nycdob.github.io/CycloMedia/simple#985571.367752135,216388.150278643"
85,623 9 AVENUE,MN,10036,1054,29,1026414,104,4,1920,1559214,1/14/2021,Butler/2770,I2,N,,N,,N,,40.75996017,-73.99191284,986490.7901,216147.7764,"https://nycdob.github.io/CycloMedia/simple#986490.790125892,216147.776415557"
86,72 BEDFORD STREET,MN,10014,587,7,1009938,102,6,1901,1559191,1/4/2021,Butler/2770,A8,Y,39034231X,Y,Shed,N,Shed on Bedford Street side.,40.73147964,-74.00473022,982939.4127,205771.3421,"https://nycdob.github.io/CycloMedia/simple#982939.412714228,205771.342115983"
87,734 AMSTERDAM AVENUE,MN,10025,1243,36,1033704,107,5,1900,1559240,1/25/2021,Butler/2770,A8,Y,39035342N/39035268L,Y,Shed,N,IED shed - sections for 2 sides. ,40.79404068,-73.97075653,992347.6068,228565.6994,"https://nycdob.github.io/CycloMedia/simple#992347.606824309,228565.699414313"
88,76 AVENUE B,MN,10009,401,41,1005062,103,5,1920,1559161,1/7/2021,Butler/2770,I2,N,,N,,N,,40.72407913,-73.9822464,989171.3464,203075.5699,"https://nycdob.github.io/CycloMedia/simple#989171.346444547,203075.56994848"
89,78 RIVINGTON STREET,MN,10002,416,69,1005536,103,6,1920,1559166,12/30/2020,Butler/2770,A8,Y,39034076P,Y,Shed,N,IED Shed at exp 2 (by exp 1 and 2 corner) - bricks by windows,40.72048187,-73.98930359,987215.3901,201764.6602,"https://nycdob.github.io/CycloMedia/simple#987215.390054643,201764.660168722"
90,80 DELANCEY STREET,MN,10002,415,78,1005508,103,6,1920,1559164,12/29/2020,Butler/2770,I2,N,,N,,N,,40.71934891,-73.98986816,987058.9415,201351.8693,"https://nycdob.github.io/CycloMedia/simple#987058.941548631,201351.869327649"
91,801 9 AVENUE,MN,10019,1063,29,1026764,104,5,1910,1559217,1/14/2021,Butler/2770,I2,N,,N,,N,,40.7655983,-73.98782349,987623.3827,218202.0633,"https://nycdob.github.io/CycloMedia/simple#987623.382676974,218202.063317478"
92,859 9 AVENUE,MN,10019,1065,36,1026849,104,6,1883,1559220,12/28/2020,Butler/2770,A8,Y,39033991Y,N,,N,,40.76723862,-73.98661804,987957.2107,218799.7347,"https://nycdob.github.io/CycloMedia/simple#987957.210749477,218799.734694317"
93,94 AVENUE A,MN,10009,402,1,1077603,103,4,1920,1559235,1/7/2021,Butler/2770,I2,N,,N,,N,,40.72547913,-73.98362732,988788.4866,203585.5588,"https://nycdob.github.io/CycloMedia/simple#988788.486645967,203585.558757886"
94,1129 AMSTERDAM AVENUE,MN,10025,1867,74,1056058,109,7,1925,1559301,1/25/2020,Leon/2769,I2,N,,N,,N,,40.80646133,-73.96090698,995072.8258,233092.0388,"https://nycdob.github.io/CycloMedia/simple#995072.825783297,233092.038786814"
95,1140 2 AVENUE,MN,10065,1435,1,1081227,108,4,1910,1559248,12/30/2020,Leon/2769,I2,N,,N,,N,,40.7612381,-73.96353149,994353.1209,216615.3673,"https://nycdob.github.io/CycloMedia/simple#994353.120857894,216615.367343888"
96,133 WEST 113 STREET,MN,10026,1823,10,1055007,110,7,1904,1559295,1/15/2021,Leon/2769,I2,N,,N,,N,,40.80105972,-73.95287323,997297.9312,231125.1375,"https://nycdob.github.io/CycloMedia/simple#997297.931241214,231125.137536898"
97,1347 2 AVENUE,MN,10021,1425,28,1043928,108,5,1920,1559243,12/30/2020,Leon/2769,A8,Y,35540217X,N,,N,,40.76813126,-73.959198,995552.4406,219127.3016,"https://nycdob.github.io/CycloMedia/simple#995552.440637723,219127.301624477"
98,150 EAST 87 STREET,MN,10128,1515,52,1047969,108,5,1930,1559254,12/24/2020,Leon/2769,I2,N,,N,,N,,40.77991104,-73.95506287,996695.6592,223419.6293,"https://nycdob.github.io/CycloMedia/simple#996695.659151807,223419.629325897"
99,1501 2 AVENUE,MN,10075,1433,24,1044176,108,5,1910,1559245,12/30/2020,Leon/2769,I2,N,,N,,N,,40.77291107,-73.95565033,996534.2543,220869.2227,"https://nycdob.github.io/CycloMedia/simple#996534.254290894,220869.222681314"
100,1841 1 AVENUE,MN,10128,1558,23,1078673,108,5,1910,1559239,12/30/2020,Leon/2769,A8,Y,35540218H,N,,N,,40.78290939,-73.94548035,999348.8425,224513.5359,"https://nycdob.github.io/CycloMedia/simple#999348.842493728,224513.535930723"
101,1855 ADAM C POWELL BLVD,MN,10026,1823,1,1055003,110,6,1915,1559294,1/14/2021,Leon/2769,I2,N,,N,,N,,40.80131149,-73.95340729,997150.0224,231216.787,"https://nycdob.github.io/CycloMedia/simple#997150.022416309,231216.786959887"
102,2 WEST 120 STREET,MN,10035,1718,37,1053262,110,7,1900,1559286,1/15/2021,Leon/2769,I2,N,,N,,N,,40.80318069,-73.94509125,999451.9689,231899.1357,"https://nycdob.github.io/CycloMedia/simple#999451.96892789,231899.135660812"
103,20 MORNINGSIDE AVENUE,MN,10026,1943,1,1081516,110,6,1900,1559251,1/15/2021,Leon/2769,I2,N,,N,,N,,40.80566025,-73.95757294,995995.9558,232800.6066,"https://nycdob.github.io/CycloMedia/simple#995995.955826804,232800.606626898"
104,200 WEST 113 STREET,MN,10026,1828,34,1055119,110,7,1920,1559298,1/15/2021,Leon/2769,I2,N,,N,,N,,40.8012886,-73.95443726,996864.8701,231208.2975,"https://nycdob.github.io/CycloMedia/simple#996864.87009947,231208.297475561"
105,200 WEST 118 STREET,MN,10026,1923,35,1058393,110,5,1910,1559194,1/15/2021,Leon/2769,I2,N,,N,,N,,40.80445099,-73.95200348,997538.0538,232360.8267,"https://nycdob.github.io/CycloMedia/simple#997538.053792477,232360.826666564"
106,208 ST NICHOLAS AVENUE,MN,10027,1926,61,1058485,110,5,1910,1559196,12/31/2020,Leon/2769,I2,N,,N,,N,,40.80720139,-73.95263672,997362.2018,233362.7987,"https://nycdob.github.io/CycloMedia/simple#997362.201781973,233362.798743978"
107,2096 5 AVENUE,MN,10035,1726,39,1053698,110,7,1921,1559287,1/25/2021,Leon/2769,I2,N,,N,,N,,40.80895996,-73.94082642,1000631.272,234005.4959,"https://nycdob.github.io/CycloMedia/simple#1000631.27168739,234005.495949388"
108,216 WEST 103 STREET,MN,10025,1874,43,1056545,107,5,1925,1559306,12/24/2020,Leon/2769,I2,N,,N,,N,,40.79882813,-73.96822357,993048.3246,230310.1776,"https://nycdob.github.io/CycloMedia/simple#993048.324582964,230310.17755264"
109,243 WEST 98 STREET,MN,10025,1870,7501,1056414,107,7,1899,1559302,12/24/2020,Leon/2769,I2,N,,N,,N,,40.79631042,-73.97109222,992254.3849,229392.6131,"https://nycdob.github.io/CycloMedia/simple#992254.384897888,229392.613114804"
110,2526 8 AVENUE,MN,10030,1940,61,1084054,110,5,1910,1559270,1/25/2021,Leon/2769,I2,N,,N,,N,,40.81615829,-73.94638824,999090.0018,236627.1124,"https://nycdob.github.io/CycloMedia/simple#999090.001804054,236627.112425312"
111,2709 BROADWAY,MN,10025,1875,53,1056575,107,7,1910,1559308,12/24/2020,Leon/2769,I2,N,,N,,N,,40.79970169,-73.96861267,992940.4806,230628.4069,"https://nycdob.github.io/CycloMedia/simple#992940.480638549,230628.406903058"
112,40 MORNINGSIDE AVENUE,MN,10026,1945,1,1059090,110,7,1920,1559203,1/15/2021,Leon/2769,I2,N,,N,,N,,40.80698013,-73.95681,996206.9321,233281.5886,"https://nycdob.github.io/CycloMedia/simple#996206.932110891,233281.588604555"
113,66 ST NICHOLAS AVENUE,MN,10026,1823,7501,1055030,110,7,1915,1559296,12/31/2020,Leon/2769,I2,N,,N,,N,,40.80113983,-73.95218658,997488.0217,231154.4275,"https://nycdob.github.io/CycloMedia/simple#997488.021740302,231154.427504554"
114,839 WEST END AVENUE,MN,10025,1889,22,1057136,107,7,1902,1559310,12/24/2020,Leon/2769,I2,N,,N,,N,,40.79838943,-73.97131348,992192.8745,230150.0486,"https://nycdob.github.io/CycloMedia/simple#992192.874522224,230150.048607811"
115,92 ST NICHOLAS AVENUE,MN,10026,1824,55,1055039,110,7,1926,1559297,12/31/2020,Leon/2769,I2,N,,N,,N,,40.80197906,-73.95223236,997475.1802,231460.1812,"https://nycdob.github.io/CycloMedia/simple#997475.180230558,231460.18115814"
116,100 WEST 74 STREET,MN,10023,1145,33,1030017,107,5,1887,1559225,2/5/2021,Butler/2770,I2,N,,N,,N,,40.77862167,-73.97815704,990299.8832,222947.4305,"https://nycdob.github.io/CycloMedia/simple#990299.883229464,222947.430467144"
117,1413 MADISON AVENUE,MN,10029,1603,50,1051471,111,5,1920,1559265,2/3/2021,Butler/2770,I2,N,,N,,N,,40.78831863,-73.95301056,997262.4001,226483.0979,"https://nycdob.github.io/CycloMedia/simple#997262.400144309,226483.097936481"
118,1841 1 AVENUE,MN,10128,1558,23,1078675,108,5,1910,1559244,12/30/2020,Leon/2769,A8,Y,3554028H,N,,N,,40.78280866,-73.94528643,999402.5688,224476.87,"https://nycdob.github.io/CycloMedia/simple#999402.568764225,224476.869993567"
119,1984 2 AVENUE,MN,10029,1674,1,1052658,111,5,1910,1559284,2/3/2021,Butler/2770,A8,Y,39035760X ,N,,N,,40.78805161,-73.9439621,999768.1022,226387.2868,"https://nycdob.github.io/CycloMedia/simple#999768.102153882,226387.286776394"
120,20 MORNINGSIDE AVENUE,MN,10026,1943,1,1081519,110,6,1900,1559253,1/15/2021,Leon/2769,I2,N,,N,,N,,40.80567387,-73.95777799,995939.1872,232805.5417,"https://nycdob.github.io/CycloMedia/simple#995939.187239558,232805.54165639"
121,2020 BROADWAY,MN,10023,1141,13,1029632,107,8,1896,1559224,2/4/2021,Butler/2770,I2,N,,N,,N,,40.77639008,-73.98175812,989302.7199,222134.1591,"https://nycdob.github.io/CycloMedia/simple#989302.719869465,222134.159127817"
122,2130 FREDRICK DOUGLASS BL,MN,10026,1831,1,1055219,110,5,1910,1559299,2/5/2021,Butler/2770,A8,Y,39035892H,N,,N,,40.80371094,-73.95548248,996575.0423,232090.6917,"https://nycdob.github.io/CycloMedia/simple#996575.042267054,232090.691708148"
123,227 RIVERSIDE DRIVE,MN,10025,1253,48,1034186,107,7,1898,1559241,2/4/2021,Butler/2770,I2,N,,N,,N,,40.79521942,-73.97572327,990972.2493,228994.735,"https://nycdob.github.io/CycloMedia/simple#990972.249338806,228994.734973565"
124,2400 ADAM C POWELL BLVD,MN,10030,2026,29,1060413,110,7,1905,1559212,2/5/2021,Butler/2770,I2,N,,N,,N,,40.81882095,-73.94164276,1000402.893,237598.0544,"https://nycdob.github.io/CycloMedia/simple#1000402.89287905,237598.054381058"
125,412 WEST END AVENUE,MN,10024,1227,61,1032647,107,8,1900,1559229,1/29/2021,Butler/2770,I2,N,,N,,N,,40.78474045,-73.98042297,989671.8271,225176.5609,"https://nycdob.github.io/CycloMedia/simple#989671.827070892,225176.560851395"
126,474 COLUMBUS AVENUE,MN,10024,1213,35,1032074,107,5,1900,1559227,1/29/2021,Butler/2770,I2,N,,N,,N,,40.78453827,-73.97399139,991452.9357,225103.3632,"https://nycdob.github.io/CycloMedia/simple#991452.935713381,225103.363163143"
127,579 3 AVENUE,MN,10016,919,1,1020348,106,5,1910,1559213,1/29/2021,Butler/2770,I2,N,,N,,N,,40.7482605,-73.97592163,990922.0286,211886.0215,"https://nycdob.github.io/CycloMedia/simple#990922.028638721,211886.021487638"
128,594 AMSTERDAM AVENUE,MN,10024,1236,36,1033299,107,5,1910,1559230,2/4/2021,Butler/2770,I2,N,,N,,N,,40.78964996,-73.97399139,991452.3826,226965.7266,"https://nycdob.github.io/CycloMedia/simple#991452.382564887,226965.726564392"
129,65 FT WASHINGTON AVENUE,MN,10032,2136,145,1063332,112,6,1920,1559232,12/22/2020,Butler/2770,A8,Y,39033765X,Y,Shed,N,Sidewalk shed sections along exp. 1 and 2 - Defective stone around windows,40.83742905,-73.94454956,999594.0385,244377.1415,"https://nycdob.github.io/CycloMedia/simple#999594.038525641,244377.14154464"
130,700 AMSTERDAM AVENUE,MN,10025,1241,36,1033650,107,5,1900,1559233,1/25/2021,Butler/2770,I2,N,,N,,N,,40.79278183,-73.97170258,992085.8035,228106.9707,"https://nycdob.github.io/CycloMedia/simple#992085.803542137,228106.97067298"
131,720 COLUMBUS AVENUE,MN,10025,1226,29,1082743,107,16,1986,1559268,1/25/2021,Butler/2770,I2,N,,N,,N,,40.79262161,-73.9681778,993061.8183,228048.9321,"https://nycdob.github.io/CycloMedia/simple#993061.81832239,228048.932075143"
132,769 MELROSE AVENUE,BX,10451,2404,24,2001747,201,5,1931,2310234,12/31/2020,Leon/2769,I2,N,,N,,N,,40.82191086,-73.91525269,1007706.218,238729.7857,"https://nycdob.github.io/CycloMedia/simple#1007706.21849547,238729.78571339"
133,271 EAST 150 STREET,BX,10451,2410,1,2001820,201,4,1910,2310235,12/18/2020,Leon/2769,I2,N,,N,,N,,40.81809998,-73.92215729,1005796.441,237339.5716,"https://nycdob.github.io/CycloMedia/simple#1005796.44114706,237339.571630314"
134,327 EAST 158 STREET,BX,10451,2418,23,2001893,201,4,1931,2310236,12/31/2020,Leon/2769,I2,N,,N,,N,,40.82300186,-73.91676331,1007287.741,239126.8755,"https://nycdob.github.io/CycloMedia/simple#1007287.74098597,239126.8754704"
135,206 WILLIS AVENUE,BX,10454,2281,1,2000217,201,5,1931,2310227,12/18/2020,Leon/2769,I2,N,,N,,N,,40.80780029,-73.92350006,1005428.054,233586.7015,"https://nycdob.github.io/CycloMedia/simple#1005428.05376047,233586.701511398"
136,408 EAST 138 STREET,BX,10454,2282,8,2000238,201,5,1931,2310229,12/18/2020,Leon/2769,A8,Y,35540216Y,N,,N,,40.80884933,-73.92272949,1005641.035,233969.0908,"https://nycdob.github.io/CycloMedia/simple#1005641.03528988,233969.090838477"
137,3042 3 AVENUE,BX,10455,2364,1,2001183,201,5,1925,2310230,12/18/2020,Leon/2769,I2,N,,N,,N,,40.82012939,-73.91269684,1008414.257,238081.4268,"https://nycdob.github.io/CycloMedia/simple#1008414.25710563,238081.426773891"
138,650 MELROSE AVENUE,BX,10455,2374,73,2001356,201,5,1913,2310232,12/18/2020,Leon/2769,I2,N,,N,,N,,40.81864929,-73.91641998,1007384.277,237541.1683,"https://nycdob.github.io/CycloMedia/simple#1007384.27721022,237541.168339983"
139,681 MELROSE AVENUE,BX,10455,2400,23,2001694,201,5,1910,2310233,12/18/2020,Leon/2769,I2,N,,N,,N,,40.81938171,-73.91647339,1007369.24,237808.0008,"https://nycdob.github.io/CycloMedia/simple#1007369.23951064,237808.000811562"
140,510 CLAREMONT PARKWAY,BX,10457,2912,24,2009548,203,1,1931,2310238,12/15/2020,Butler/2770,I2,N,,N,,N,,40.8381691,-73.90157318,1011485.69,244657.2138,"https://nycdob.github.io/CycloMedia/simple#1011485.68961105,244657.213819146"
141,270 EAST 162 STREET,BX,10451,2421,13,2001927,204,5,1931,2310237,12/15/2020,Butler/2770,I2,N,,N,,N,,40.82632065,-73.91770172,1007026.882,240335.7855,"https://nycdob.github.io/CycloMedia/simple#1007026.88225572,240335.785454139"
142,4051 BARNES AVENUE,BX,10466,4842,1,2063543,212,2,1910,2310240,12/15/2020,Butler/2770,I2,N,,N,,N,,40.8891983,-73.85664368,1023887.519,263266.2642,"https://nycdob.github.io/CycloMedia/simple#1023887.51880997,263266.264199391"
143,3630 HOLLAND AVENUE,BX,10467,4662,35,2057855,212,3,1928,2310239,12/15/2020,Butler/2770,I2,N,,N,,N,,40.8794899,-73.86328888,1022055.684,259726.1712,"https://nycdob.github.io/CycloMedia/simple#1022055.68421905,259726.17121397"
144,265 LEE AVENUE,BK,11206,2264,5,3061411,301,4,1931,3778647,12/18/2020,Butler/2770,I2,N,,N,,N,,40.70000076,-73.95346832,997152.7317,194306.0196,"https://nycdob.github.io/CycloMedia/simple#997152.731728464,194306.019574225"
145,317 BUSHWICK AVENUE,BK,11206,3082,1,3071364,301,3,1931,3778671,12/17/2020,Butler/2770,I2,N,,N,,N,,40.70542908,-73.93916321,1001117.889,196286.1485,"https://nycdob.github.io/CycloMedia/simple#1001117.88948056,196286.14848797"
146,185 BEDFORD AVENUE,BK,11211,2328,8,3062094,301,5,1910,3778661,12/18/2020,Butler/2770,I2,N,,N,,N,,40.71760178,-73.95760345,996003.0362,200718.0179,"https://nycdob.github.io/CycloMedia/simple#996003.036193222,200718.017905056"
147,213 BEDFORD AVENUE,BK,11211,2336,1,3062200,301,4,1910,3778662,12/18/2020,Butler/2770,A8,Y,39033651H,N,,N,owner notified 516-481-7995 to resolve cracked stucco concrete,40.71670151,-73.95863342,995717.6759,200389.8857,"https://nycdob.github.io/CycloMedia/simple#995717.675871551,200389.885687307"
148,425 SOUTH 5 STREET,BK,11211,2452,31,3063528,301,4,1920,3778667,12/10/2020,Butler/2770,I2,N,,N,,N,,40.70714951,-73.95126343,997762.656,196910.8546,"https://nycdob.github.io/CycloMedia/simple#997762.656033561,196910.854587644"
149,324 GRAHAM AVENUE,BK,11211,2771,8,3069072,301,4,2018,3778668,12/10/2020,Butler/2770,I2,N,,N,,N,,40.71371078,-73.94393158,999793.8888,199302.5385,"https://nycdob.github.io/CycloMedia/simple#999793.888847724,199302.538452566"
150,670 GRAND STREET,BK,11211,2787,24,3069572,301,4,1920,3778670,12/10/2020,Butler/2770,I2,N,,N,,N,,40.71126175,-73.94570923,999301.6352,198409.9727,"https://nycdob.github.io/CycloMedia/simple#999301.63523905,198409.972652391"
151,1020 MANHATTAN AVENUE,BK,11222,2513,1,3321439,301,4,1931,3778681,12/10/2020,Butler/2770,A8,Y,39033278Z,N,,N,,40.73392105,-73.95451355,996856.4925,206664.0615,"https://nycdob.github.io/CycloMedia/simple#996856.492491558,206664.061459139"
152,102 SOUTH 2 STREET,BK,11249,2416,22,3063075,301,4,1910,3778663,12/10/2020,Butler/2770,I2,N,,N,,N,,40.71371078,-73.96382904,994277.8412,199299.6346,"https://nycdob.github.io/CycloMedia/simple#994277.841152802,199299.634586975"
153,61 SOUTH 4 STREET,BK,11249,2429,36,3063244,301,3,1910,3778665,12/10/2020,Butler/2770,I2,N,,N,,N,Emergency Shoring permit - Shed in place,40.71298981,-73.9655838,993791.4832,199036.7673,"https://nycdob.github.io/CycloMedia/simple#993791.483201638,199036.767330557"
154,104 FRONT STREET,BK,11201,51,19,3000128,302,4,1877,3778684,12/11/2020,Butler/2770,I2,N,,N,,N,,40.70235062,-73.98873138,987374.8536,195158.9178,"https://nycdob.github.io/CycloMedia/simple#987374.853646472,195158.917802811"
155,351 JAY STREET,BK,11201,147,4,3319418,302,23,1990,3778678,12/9/2020,Butler/2770,I2,N,,N,,N,,40.69321823,-73.98671722,987933.8263,191831.7965,"https://nycdob.github.io/CycloMedia/simple#987933.826281801,191831.796504304"
156,45 PINEAPPLE STREET,BK,11201,226,1,3001685,302,7,1939,3778619,12/9/2020,Butler/2770,I2,N,,N,,N,Multiple buildings on lot,40.6987114,-73.99359131,986027.4331,193832.906,"https://nycdob.github.io/CycloMedia/simple#986027.433112964,193832.906019136"
157,45 PINEAPPLE STREET,BK,11201,226,1,3341530,302,7,1939,3778708,12/9/2020,Butler/2770,I2,N,,N,,N,Multiple buildings on lot,40.69855246,-73.99396379,985924.1535,193774.9921,"https://nycdob.github.io/CycloMedia/simple#985924.153463885,193774.992092982"
158,1 WILLOW PLACE,BK,11201,260,23,3002325,302,4,1849,3778620,12/10/2020,Butler/2770,A8,Y,39033323Z,N,,N,,40.69340897,-73.99756622,984925.2992,191901.0188,"https://nycdob.github.io/CycloMedia/simple#984925.299162388,191901.018806815"
159,317 HICKS STREET,BK,11201,274,25,3002719,302,5,1849,3778622,12/9/2020,Butler/2770,I2,N,,N,,N,,40.69166183,-73.99743652,984961.2847,191264.4856,"https://nycdob.github.io/CycloMedia/simple#984961.284654722,191264.485631064"
160,161 WILLOUGHBY AVENUE,BK,11205,1904,53,3054887,302,5,1885,3778714,12/9/2020,Butler/2770,A8,Y,39033237M,N,,N,,40.69208145,-73.9658432,993722.5408,191419.2015,"https://nycdob.github.io/CycloMedia/simple#993722.540754214,191419.201528981"
161,352 MYRTLE AVENUE,BK,11205,2073,28,3058329,302,6,1905,3778646,12/9/2020,Butler/2770,I2,N,,N,,N,,40.69298935,-73.97210693,991985.4173,191749.361,"https://nycdob.github.io/CycloMedia/simple#991985.417259976,191749.360973641"
162,320 LAFAYETTE AVENUE,BK,11238,1948,1,3055567,302,4,1905,3778644,12/10/2020,Butler/2770,I2,N,,N,,N,,40.68835068,-73.96263123,994613.8438,190060.3368,"https://nycdob.github.io/CycloMedia/simple#994613.843761638,190060.336792648"
163,602 MARCY AVENUE,BK,11206,1758,54,3048777,303,4,1931,3778638,12/18/2020,Butler/2770,I2,N,,N,,N,,40.69400024,-73.9492569,998321.7435,192120.5016,"https://nycdob.github.io/CycloMedia/simple#998321.743498057,192120.501635566"
164,146 MARCUS GARVEY BLVD,BK,11206,1777,33,3049570,303,4,1931,3778639,12/16/2020,Butler/2770,Y3,Y,39033558N,Y,Fence,Y,1 story at rear diagonal crack facade/wall - partial vacate ,40.69313049,-73.94035339,1000790.953,191805.1821,"https://nycdob.github.io/CycloMedia/simple#1000790.95312655,191805.182056233"
165,178 HALSEY STREET,BK,11216,1844,50,3322633,303,4,1888,3778682,12/16/2020,Butler/2770,I2,N,,N,,N,,40.68196106,-73.94670105,999033.164,187734.6997,"https://nycdob.github.io/CycloMedia/simple#999033.163991228,187734.699711651"
166,1449 FULTON STREET,BK,11216,1857,33,3053645,303,5,1910,3778642,12/11/2020,Butler/2770,A8,Y,39033368M,Y,Shed,Y,Inspector concerned with Cell tower at roof pushing out side wall,40.68019104,-73.94297791,1000066.218,187090.4805,"https://nycdob.github.io/CycloMedia/simple#1000066.21802747,187090.480527639"
167,1204 BEDFORD AVENUE,BK,11216,1996,36,3057348,303,4,1930,3778645,12/11/2020,Butler/2770,I2,N,,N,,N,,40.68292999,-73.95413208,996971.9401,188086.5422,"https://nycdob.github.io/CycloMedia/simple#996971.940095305,188086.542183816"
168,40 HOWARD AVENUE,BK,11221,1485,38,3039770,303,3,1905,3778631,12/8/2020,Butler/2770,I2,N,,N,,N,,40.68722153,-73.92112732,1006124.459,189656.5912,"https://nycdob.github.io/CycloMedia/simple#1006124.45853564,189656.591209054"
169,654 PUTNAM AVENUE,BK,11221,1650,1,3045386,303,4,1930,3778637,12/8/2020,Butler/2770,A8,Y,39033137P/39033138R,N,,N,,40.68548965,-73.93538666,1002170.327,189022.3786,"https://nycdob.github.io/CycloMedia/simple#1002170.32668014,189022.378566727"
170,417 THROOP AVENUE,BK,11221,1806,9,3050772,303,3,1931,3778641,12/16/2020,Butler/2770,I2,N,,N,,N,,40.68861008,-73.9417572,1000402.759,190158.0029,"https://nycdob.github.io/CycloMedia/simple#1000402.75869296,190158.002935886"
171,1381 BUSHWICK AVENUE,BK,11207,3433,1,3326465,304,3,1931,3778686,12/8/2020,Butler/2770,I2,N,,N,,N,Multiple buildings on lot,40.68527985,-73.91010284,1009182.645,188952.1264,"https://nycdob.github.io/CycloMedia/simple#1009182.64533263,188952.126410648"
172,1408 BUSHWICK AVENUE,BK,11207,3438,42,3079880,304,4,1925,3778672,12/8/2020,Butler/2770,I2,N,,N,,N,,40.6843605,-73.90969849,1009295.134,188617.2964,"https://nycdob.github.io/CycloMedia/simple#1009295.13395281,188617.296371639"
173,113 MOFFAT STREET,BK,11207,3440,1,3079945,304,3,1926,3778675,12/8/2020,Butler/2770,I2,N,,N,,N,,40.68621826,-73.90807343,1009745.127,189294.6005,"https://nycdob.github.io/CycloMedia/simple#1009745.1271473,189294.600463226"
174,486 GLENMORE AVENUE,BK,11207,3725,10,3083880,305,3,1930,3778677,12/8/2020,Butler/2770,A8,Y,39033158Y,N,,Y,defective/deteriorated wood wall frame by rear fire escape.,40.67351913,-73.89224243,1014141.355,184672.9499,"https://nycdob.github.io/CycloMedia/simple#1014141.35490339,184672.94992964"
175,756 UNION STREET,BK,11215,957,3,3020180,306,4,1920,3778627,12/11/2020,Butler/2770,I2,N,,N,,N,Multiple buildings on lot - 754 is the corner Bldg.,40.67517853,-73.9779129,990377.0002,185259.9048,"https://nycdob.github.io/CycloMedia/simple#990377.000201225,185259.904792473"
176,230 7 AVENUE,BK,11215,983,44,3324971,306,4,1920,3778683,12/14/2020,Butler/2770,I2,N,,N,,N,,40.67016983,-73.97923279,990011.3165,183435.0033,"https://nycdob.github.io/CycloMedia/simple#990011.316549391,183435.003258556"
177,76 ST MARKS AVENUE,BK,11217,936,8,3341898,306,5,1920,3778690,12/14/2020,Butler/2770,I2,N,,N,,N,,40.67964935,-73.9746933,991269.5952,186888.9941,"https://nycdob.github.io/CycloMedia/simple#991269.595200807,186888.994053975"
178,361 COURT STREET,BK,11231,435,1,3007215,306,5,1900,3778623,12/14/2020,Butler/2770,I2,N,,N,,N,230 7 Ave is an L shaped lot - corner bldg. is 451 4 Street,40.68172836,-73.99590302,985386.7172,187645.4499,"https://nycdob.github.io/CycloMedia/simple#985386.717202798,187645.449890137"
179,451 COURT STREET,BK,11231,470,8,3336357,306,4,1920,3778688,12/14/2020,Butler/2770,I2,N,,N,,N,Two buldings on lot - 449 is the corner building,40.67757034,-73.9978714,984840.8105,186130.5445,"https://nycdob.github.io/CycloMedia/simple#984840.810486227,186130.544455394"
180,322 VAN BRUNT STREET,BK,11231,545,19,3008474,306,4,1931,3778624,12/7/2020,Butler/2770,I2,N,,N,,N,,40.67895889,-74.01139832,981088.8593,186636.6317,"https://nycdob.github.io/CycloMedia/simple#981088.859328717,186636.631697804"
181,368 VAN BRUNT STREET,BK,11231,565,25,3008584,306,4,1931,3778625,12/7/2020,Butler/2770,A8,Y,39033068K,Y,Shed,N,,40.6775589,-74.01304626,980631.6972,186126.639,"https://nycdob.github.io/CycloMedia/simple#980631.697185308,186126.638951391"
182,968 3 AVENUE,BK,11232,695,46,3010312,307,4,1930,3778626,12/14/2020,Butler/2770,I2,N,,N,,N,,40.65528107,-74.00731659,982220.2813,178010.0131,"https://nycdob.github.io/CycloMedia/simple#982220.281278476,178010.013124317"
183,307 FLATBUSH AVENUE,BK,11217,1157,15,3028698,308,5,1889,3778629,12/17/2020,Butler/2770,I2,N,,N,,N,,40.67840958,-73.9730835,991716.2367,186437.4431,"https://nycdob.github.io/CycloMedia/simple#991716.236695975,186437.443119809"
184,597 GRAND AVENUE,BK,11238,1148,1,3330777,308,4,1900,3778687,12/17/2020,Butler/2770,I2,N,,N,,N,,40.67739868,-73.96173096,994865.258,186070.3149,"https://nycdob.github.io/CycloMedia/simple#994865.257956967,186070.314917058"
185,457 ST MARKS AVENUE,BK,11238,1149,1,3028284,308,4,1910,3778628,12/17/2020,Butler/2770,I2,N,,N,,N,,40.67673874,-73.95913696,995584.8802,185830.2048,"https://nycdob.github.io/CycloMedia/simple#995584.880205393,185830.204832971"
186,2337 PACIFIC STREET,BK,11233,1436,1,3337895,316,3,1910,3778689,12/14/2020,Butler/2770,I2,N,,N,,N,,40.67557907,-73.90778351,1009829.613,185418.5239,"https://nycdob.github.io/CycloMedia/simple#1009829.6131988,185418.523897812"
187,32-02 31 AVENUE,QN,11106,614,39,4008432,401,2,1910,4830482,1/5/2021,Butler/2770,I2,N,,N,,N,,40.76369095,-73.9227066,1005661.889,217516.3642,"https://nycdob.github.io/CycloMedia/simple#1005661.88859464,217516.36422956"
188,58-04 MYRTLE AVENUE,QN,11385,3574,25,4086258,405,3,1927,4830500,12/7/2020,Butler/2770,I2,N,,N,,N,,40.70027924,-73.90133667,1011607.716,194419.4577,"https://nycdob.github.io/CycloMedia/simple#1011607.71626988,194419.457667559"
