ID,Address,Boro,Zip,Block,Lot,BIN,CB,NumFloors,ConstructionYear,ComplaintNum,InspectionDate,InspectorNameBadge,ComplaintDispostion,NOV_Issued,NOV_Num,EmgncyOrderIssued,EmgncyOrderType,Refer_FEU,Comments,Lat,Long,X,Y,CycloMedia
1,100 WEST 124 STREET,MN,10027,1908,35,1057790,110,4,1900,1571881,6/28/2021,Butler/2770,I2,N,,N,,N,,40.80710983,-73.94641876,999083.5704,233330.432,"https://nycdob.github.io/CycloMedia/simple#999083.570386469,233330.432010815"
2,1310 2 AVENUE,MN,10065,1443,49,1044780,108,4,1910,1571861,6/22/2021,Leon/2769,A8,Y,35578216H,N,,N,"Violation for Brick veneer - both sides, no permit",40.76665878,-73.95957184,995449.1354,218590.7807,"https://nycdob.github.io/CycloMedia/simple#995449.135398135,218590.780715898"
3,137 LEXINGTON AVENUE,MN,10016,885,29,1018253,106,4,1920,1571853,6/2/2021,Butler/2770,I2,N,,N,,N,,40.74324036,-73.98169708,989322.1486,210056.637,"https://nycdob.github.io/CycloMedia/simple#989322.148636386,210056.637023062"
4,1406 3 AVENUE,MN,10075,1508,40,1047481,108,4,1910,1571865,6/22/2021,Leon/2769,I2,N,,N,,N,,40.77499008,-73.95716858,996113.3627,221626.4662,"https://nycdob.github.io/CycloMedia/simple#996113.362744227,221626.466245562"
5,1410 3 AVENUE,MN,10028,1509,33,1047521,108,4,1910,1571866,6/22/2021,Leon/2769,I2,N,,N,,N,,40.77516937,-73.9569931,996161.9332,221691.8113,"https://nycdob.github.io/CycloMedia/simple#996161.93318513,221691.811259225"
6,1420 2 AVENUE,MN,10021,1449,1,1044923,108,4,1910,1571863,6/10/2021,Butler/2770,I2,N,,N,,N,,40.7700882,-73.95706177,996143.8213,219840.5627,"https://nycdob.github.io/CycloMedia/simple#996143.821344718,219840.56266515"
7,1442 1 AVENUE,MN,10021,1469,46,1045916,108,4,1910,1571864,6/10/2021,Butler/2770,I2,N,,N,,N,,40.76953888,-73.95436096,996892.0206,219640.8052,"https://nycdob.github.io/CycloMedia/simple#996892.020635724,219640.805190638"
8,1530 YORK AVENUE,MN,10028,1577,49,1050878,108,5,1920,1571870,6/21/2021,Leon/2769,I2,N,,N,,N,,40.77249908,-73.94927979,998298.8374,220720.0786,"https://nycdob.github.io/CycloMedia/simple#998298.837375894,220720.078622639"
9,155 BLEECKER STREET,MN,10012,539,35,1008681,102,4,1835,1571847,5/27/2021,Butler/2770,I2,N,,N,,N,,40.72866058,-73.99964142,984349.777,204744.2356,"https://nycdob.github.io/CycloMedia/simple#984349.777019471,204744.235574394"
10,1576 2 AVENUE,MN,10028,1544,49,1049865,108,4,1920,1571869,6/21/2021,Leon/2769,I2,N,,N,,N,,40.77510071,-73.95345306,997142.4247,221667.2975,"https://nycdob.github.io/CycloMedia/simple#997142.424662471,221667.297528729"
11,158 AVENUE C,MN,10009,379,8,1082496,103,4,1920,1571898,6/1/2021,Butler/2770,I2,N,,N,,N,,40.7256813,-73.97740173,990514.0445,203659.5993,"https://nycdob.github.io/CycloMedia/simple#990514.044546559,203659.599292234"
12,16 BANK STREET,MN,10014,614,24,1010962,102,3,1845,1571849,5/27/2021,Butler/2770,I2,N,,N,,N,,40.73688889,-74.00219727,983641.4691,207742.0737,"https://nycdob.github.io/CycloMedia/simple#983641.469052881,207742.073738813"
13,1631 LEXINGTON AVENUE,MN,10029,1631,23,1051915,111,4,1910,1571872,8/19/2021,Butler/2770,A8,Y,39046259X,N,,N,,40.79029846,-73.94735718,998827.4633,227205.3081,"https://nycdob.github.io/CycloMedia/simple#998827.463287145,227205.308106229"
14,164 1 AVENUE,MN,10009,438,1,1077662,103,5,1900,1571889,5/25/2021,Butler/2770,I2,N,,N,,N,,40.72874832,-73.98407745,988663.5056,204776.6026,"https://nycdob.github.io/CycloMedia/simple#988663.505596727,204776.602635637"
15,1641 2 AVENUE,MN,10028,1531,21,1048768,108,4,1910,1571868,6/22/2021,Leon/2769,I2,N,,N,,N,,40.7774086,-73.95243835,997423.0107,222508.2899,"https://nycdob.github.io/CycloMedia/simple#997423.01071547,222508.289941221"
16,1644 3 AVENUE,MN,10128,1521,33,1048352,108,4,1920,1571867,6/22/2021,Leon/2769,I2,N,,N,,N,,40.7828598,-73.9514389,997698.7162,224494.4979,"https://nycdob.github.io/CycloMedia/simple#997698.716200799,224494.497911066"
17,1667 1 AVENUE,MN,10028,1549,31,1081266,108,4,1915,1571895,6/23/2021,Leon/2769,I2,N,,N,,N,,40.77756882,-73.94921875,998314.6733,222567.1642,"https://nycdob.github.io/CycloMedia/simple#998314.673302218,222567.164167315"
18,1691 LEXINGTON AVENUE,MN,10029,1634,24,1052025,111,4,1910,1571873,8/19/2021,Butler/2770,I2,N,,N,,N,,40.79227829,-73.94593811,999219.9658,227926.8674,"https://nycdob.github.io/CycloMedia/simple#999219.96578297,227926.86735864"
19,1692 YORK AVENUE,MN,10128,1585,49,1051362,108,4,1940,1571871,6/21/2021,Leon/2769,I2,N,,N,,N,,40.77766037,-73.94553375,999335.2431,222601.1319,"https://nycdob.github.io/CycloMedia/simple#999335.243111476,222601.131947145"
20,174 GRAND STREET,MN,10013,471,28,1006973,102,4,1910,1571846,5/25/2021,Butler/2770,A8,Y,39041684Y,N,,N,,40.7197113,-73.99784851,984846.7829,201483.7441,"https://nycdob.github.io/CycloMedia/simple#984846.78291522,201483.744063899"
21,191 AVENUE A,MN,10009,439,28,1077670,103,4,1900,1571890,5/27/2021,Butler/2770,I2,N,,N,,N,,40.72906876,-73.98164368,989338.0279,204893.481,"https://nycdob.github.io/CycloMedia/simple#989338.027869716,204893.48101081"
22,198 9 AVENUE,MN,10011,746,1,1013337,104,4,1851,1571851,5/27/2021,Butler/2770,I2,N,,N,,N,,40.74581146,-74.00145721,983846.614,210992.8445,"https://nycdob.github.io/CycloMedia/simple#983846.61398381,210992.844468221"
23,2024 2 AVENUE,MN,10029,1676,1,1052702,111,4,1920,1571878,8/5/2021,Leon/2769,I2,N,,N,,N,,40.78931046,-73.94304657,1000021.327,226846.0923,"https://nycdob.github.io/CycloMedia/simple#1000021.32736923,226846.092289224"
24,2061 2 AVENUE,MN,10029,1655,28,1052420,111,4,1910,1571875,8/5/2021,Leon/2769,A8,Y,35582483Y,N,,N,,40.79058838,-73.94281006,1000086.515,227311.7252,"https://nycdob.github.io/CycloMedia/simple#1000086.51523097,227311.725216225"
25,2121 2 AVENUE,MN,10029,1659,21,1052437,111,4,1915,1571876,8/5/2021,Leon/2769,A8,Y,35582482M,N,,N,,40.79277039,-73.9412384,1000521.181,228106.9943,"https://nycdob.github.io/CycloMedia/simple#1000521.18070023,228106.994294971"
26,2128 3 AVENUE,MN,10035,1644,33,1052300,111,4,1910,1571874,6/29/2021,Butler/2770,I2,N,,N,,N,,40.79822922,-73.94017029,1000815.577,230096.0349,"https://nycdob.github.io/CycloMedia/simple#1000815.57676497,230096.034936309"
27,2135 BROADWAY,MN,10023,1166,45,1030728,107,5,1920,1571859,6/23/2021,Leon/2769,I2,N,,N,,N,,40.78102875,-73.98174286,989306.5939,223824.1836,"https://nycdob.github.io/CycloMedia/simple#989306.593877465,223824.183634892"
28,2161 2 AVENUE,MN,10029,1661,21,1052501,111,4,1910,1571877,8/5/2021,Leon/2769,I2,N,,N,,N,,40.79402924,-73.94030762,1000778.597,228565.811,"https://nycdob.github.io/CycloMedia/simple#1000778.59652397,228565.810962647"
29,2258 1 AVENUE,MN,10035,1710,1,1053070,111,4,1900,1571879,6/28/2021,Butler/2770,A8,Y,39043594J,N,,N,,40.79603958,-73.93504333,1002235.681,229299.2842,"https://nycdob.github.io/CycloMedia/simple#1002235.68055205,229299.284233227"
30,2276 FREDRICK DOUGLASS BL,MN,10027,1928,2,1058546,110,4,1910,1571882,6/28/2021,Leon/2769,A8,Y,35578221M,N,,N,,40.80828094,-73.95220184,997482.3771,233756.1821,"https://nycdob.github.io/CycloMedia/simple#997482.377066553,233756.182143554"
31,2366 FREDRICK DOUGLASS BL,MN,10027,1932,61,1058677,110,4,1910,1571883,6/28/2021,Leon/2769,I2,N,,N,,N,,40.81126022,-73.95002747,998083.6895,234841.9752,"https://nycdob.github.io/CycloMedia/simple#998083.689512223,234841.975247562"
32,242 10 AVENUE,MN,10001,722,1,1076125,104,4,1910,1571888,6/2/2021,Butler/2770,I2,N,,N,,N,,40.74832916,-74.00334167,983324.4835,211910.1373,"https://nycdob.github.io/CycloMedia/simple#983324.483466387,211910.137253061"
33,282 3 AVENUE,MN,10010,878,35,1018019,106,4,1910,1571852,6/1/2021,Butler/2770,I2,N,,N,,N,,40.73836899,-73.98383331,988730.5248,208281.7262,"https://nycdob.github.io/CycloMedia/simple#988730.524819642,208281.726202816"
34,328 BLEECKER STREET,MN,10014,588,60,1010043,102,4,1910,1571848,5/26/2021,Butler/2770,A8,Y,35578215X,N,,N,,40.73326874,-74.00440979,983028.2528,206423.1627,"https://nycdob.github.io/CycloMedia/simple#983028.252759635,206423.16266273"
35,340 PLEASANT AVENUE,MN,10035,1815,1,1054889,111,5,1900,1571880,6/28/2021,Butler/2770,A8,Y,39043565K,N,,N,,40.79634857,-73.93186188,1003116.477,229412.5291,"https://nycdob.github.io/CycloMedia/simple#1003116.4770188,229412.529085472"
36,343 1 AVENUE,MN,10003,925,41,1020528,106,4,1910,1571857,6/23/2021,Leon/2769,I2,N,,N,,N,,40.73501968,-73.98020172,989737.1911,207061.6739,"https://nycdob.github.io/CycloMedia/simple#989737.191113383,207061.673852891"
37,3656 BROADWAY,MN,10031,2082,59,1062168,109,4,1905,1571887,6/28/2021,Leon/2769,A8,Y,35578219N,N,,N,,40.82995987,-73.94737244,998814.5565,241655.3622,"https://nycdob.github.io/CycloMedia/simple#998814.556488797,241655.362211317"
38,37 AVENUE B,MN,10009,386,1,1004610,103,4,1920,1571844,5/26/2021,Butler/2770,I2,N,,N,,N,,40.72269058,-73.98262787,989065.7105,202569.6572,"https://nycdob.github.io/CycloMedia/simple#989065.71050097,202569.657246396"
39,37 CANAL STREET,MN,10002,297,37,1003826,103,5,1920,1571843,5/25/2021,Butler/2770,I2,N,,N,,N,,40.71479034,-73.99092865,986765.1452,199691.0111,"https://nycdob.github.io/CycloMedia/simple#986765.14522022,199691.011100814"
40,371 EAST 62 STREET,MN,10065,1437,25,1044371,108,4,1910,1571860,6/21/2021,Leon/2769,I2,N,,N,,N,,40.76171112,-73.96067047,995145.6203,216788.0468,"https://nycdob.github.io/CycloMedia/simple#995145.620257139,216788.046788558"
41,383 WEST 125 STREET,MN,10027,1952,1,1059303,109,4,1905,1571884,6/28/2021,Leon/2769,I2,N,,N,,N,,40.81148911,-73.95368958,997069.9074,234924.811,"https://nycdob.github.io/CycloMedia/simple#997069.907419056,234924.811039895"
42,48 DELANCEY STREET,MN,10002,420,70,1079717,103,3,1910,1571892,6/1/2021,Butler/2770,A8,Y,39042011Y,N,,N,,40.719841,-73.99128723,986665.5568,201531.1104,"https://nycdob.github.io/CycloMedia/simple#986665.556836724,201531.110438973"
44,501 EAST 82 STREET,MN,10028,1579,1,1083914,108,4,1890,1571900,6/23/2021,Leon/2769,A8,Y,35578217J,Y,Shed,N,Shed corner wrap - not entire,40.77333069,-73.94869995,998459.2636,221023.1551,"https://nycdob.github.io/CycloMedia/simple#998459.263564214,221023.15511623"
45,523 3 AVENUE,MN,10016,915,61,1020173,106,5,1920,1571855,6/2/2021,Butler/2770,I2,N,,N,,N,,40.74620056,-73.97746277,990495.2024,211135.4059,"https://nycdob.github.io/CycloMedia/simple#990495.202392638,211135.405862898"
46,558 3 AVENUE,MN,10016,892,47,1018969,106,4,1910,1571854,6/2/2021,Butler/2770,I2,N,,N,,N,,40.74765015,-73.9770813,990600.7655,211663.5652,"https://nycdob.github.io/CycloMedia/simple#990600.765501723,211663.565239638"
47,593 1 AVENUE,MN,10016,939,37,1081680,106,4,1900,1571897,6/18/2021,Leon/2769,I2,N,,N,,N,,40.74377823,-73.97393036,991474.2556,210253.1452,"https://nycdob.github.io/CycloMedia/simple#991474.255552635,210253.145160228"
48,643 2 AVENUE,MN,10016,916,30,1020188,106,4,1920,1571856,6/2/2021,Butler/2770,I2,N,,N,,N,,40.74565125,-73.97557831,991017.4208,210935.4145,"https://nycdob.github.io/CycloMedia/simple#991017.420836389,210935.41446498"
49,658 9 AVENUE,MN,10036,1036,61,1025029,104,4,1920,1571858,6/3/2021,Butler/2770,I2,N,,N,,N,,40.76078033,-73.99059296,986856.4062,216446.6239,"https://nycdob.github.io/CycloMedia/simple#986856.406192556,216446.623914972"
50,781 ST NICHOLAS AVENUE,MN,10031,2064,27,1061543,109,4,1920,1571886,6/28/2021,Leon/2769,I2,N,,N,,N,,40.82686996,-73.9433136,999938.5293,240530.2959,"https://nycdob.github.io/CycloMedia/simple#999938.529306471,240530.295891896"
51,843 2 AVENUE,MN,10017,1319,122,1081178,106,4,1933,1571894,6/18/2021,Leon/2769,I2,N,,N,,N,,40.75197983,-73.97104645,992272.3957,213241.5017,"https://nycdob.github.io/CycloMedia/simple#992272.395688638,213241.501716316"
52,939 8 AVENUE,MN,10019,1046,36,1080919,104,4,1930,1571893,6/3/2021,Butler/2770,I2,N,,N,,N,,40.76599121,-73.98381805,988732.8949,218345.3928,"https://nycdob.github.io/CycloMedia/simple#988732.894893631,218345.392755225"
53,95 BOWERY,MN,10002,304,1,1079654,103,3,1910,1571891,5/25/2021,Butler/2770,I2,N,,N,,N,,40.7172699,-73.99506378,985618.7568,200594.2987,"https://nycdob.github.io/CycloMedia/simple#985618.756764978,200594.298664317"
54,2809 3 AVENUE,BX,10455,2327,22,2000836,201,4,1905,2317732,5/28/2021,Leon/2769,A8,Y,35577116X,N,,N,,40.81555176,-73.91900635,1006669.447,236411.9547,"https://nycdob.github.io/CycloMedia/simple#1006669.44661888,236411.954719141"
55,321 EAST 141 STREET,BX,10454,2315,42,2000756,201,4,1915,2317731,5/28/2021,Leon/2769,A8,Y,35577115Y,N,,N,,40.81219101,-73.92392731,1005308.388,235186.2928,"https://nycdob.github.io/CycloMedia/simple#1005308.3879893,235186.292800397"
56,442 WALES AVENUE,BX,10455,2576,11,2120215,201,3,1915,2317737,8/9/2021,Leon/2769,I2,N,,N,,N,,40.80997849,-73.90796661,1009727.38,234384.4329,"https://nycdob.github.io/CycloMedia/simple#1009727.38046364,234384.432855561"
57,721 MELROSE AVENUE,BX,10455,2402,23,2001731,201,4,1931,2317733,5/28/2021,Leon/2769,I2,N,,N,,N,,40.82041931,-73.91599274,1007501.913,238186.1631,"https://nycdob.github.io/CycloMedia/simple#1007501.91312981,238186.163112983"
58,796 COURTLANDT AVENUE,BX,10451,2404,8,2001743,201,4,1931,2317734,8/9/2021,Leon/2769,I2,N,,N,,N,,40.82265854,-73.91635132,1007401.886,239001.9003,"https://nycdob.github.io/CycloMedia/simple#1007401.88642697,239001.900326639"
59,844 EAST 155 STREET,BX,10455,2675,18,2004932,201,4,1905,2317735,5/28/2021,Leon/2769,A8,Y,35577115Y,N,,N,,40.81628036,-73.90338135,1010994.154,236681.7944,"https://nycdob.github.io/CycloMedia/simple#1010994.1541768,236681.794402555"
60,936 EAST 169 STREET,BX,10459,2718,75,2005693,202,4,1931,2317736,8/9/2021,Leon/2769,I2,N,,N,,N,,40.82683945,-73.89331055,1013777.036,240532.0846,"https://nycdob.github.io/CycloMedia/simple#1013777.03575014,240532.084602222"
61,1047 FLUSHING AVENUE,BK,11237,3012,24,3070729,301,4,1931,3798033,6/21/2021,Butler/2770,I2,N,,N,,N,,40.70426941,-73.93049622,1003521.218,195865.4341,"https://nycdob.github.io/CycloMedia/simple#1003521.21800722,195865.434106305"
62,105 NORMAN AVENUE,BK,11222,2620,30,3065642,301,4,1930,3798019,6/10/2021,Butler/2770,A8,Y,39043162X,N,,N,Spoke with owner 914-774-0833 -emailed pictures,40.72584152,-73.95110321,997803.276,203720.9466,"https://nycdob.github.io/CycloMedia/simple#997803.276031047,203720.946610481"
63,1071 BEDFORD AVENUE,BK,11216,1802,5,3050558,303,4,1931,3798115,6/23/2021,Butler/2770,A8,Y,39043348Y,N,,N,,40.68716049,-73.95435333,996909.7729,189627.8035,"https://nycdob.github.io/CycloMedia/simple#996909.772896811,189627.803536981"
64,108 FLUSHING AVENUE,BK,11205,2031,33,3057991,302,4,1905,3797974,6/16/2021,Butler/2770,I2,N,,N,,N,,40.69771957,-73.97293854,991754.2714,193472.6469,"https://nycdob.github.io/CycloMedia/simple#991754.271396801,193472.646897137"
65,109 DIKEMAN STREET,BK,11231,586,21,3008704,306,3,1931,3797992,6/11/2021,Butler/2770,A8,Y,39042695Y,N,,N,,40.6767807,-74.01387787,980400.985,185843.1536,"https://nycdob.github.io/CycloMedia/simple#980400.985048309,185843.15362598"
66,109 WILSON AVENUE,BK,11237,3197,8,3072722,304,3,1931,3798046,8/18/2021,Butler/2770,I2,N,,N,,N,,40.70145035,-73.92653656,1004619.946,194839.2626,"https://nycdob.github.io/CycloMedia/simple#1004619.94612472,194839.262602225"
67,110 BEDFORD AVENUE,BK,11249,2297,13,3061604,301,4,1920,3797989,6/21/2021,Butler/2770,I2,N,,N,,N,,40.72008896,-73.95565796,996541.8822,201624.4406,"https://nycdob.github.io/CycloMedia/simple#996541.882228389,201624.440632895"
68,110 SMITH STREET,BK,11201,187,20,3001039,302,4,1920,3798109,9/20/2021,Butler/2770,A8,Y,39044672K,N,,N,,40.68798828,-73.98989105,987053.9147,189926.2554,"https://nycdob.github.io/CycloMedia/simple#987053.914655805,189926.25536789"
69,111 KINGSTON AVENUE,BK,11213,1216,3,3030514,308,4,1896,3798073,6/23/2021,Butler/2770,I2,N,,N,,N,,40.67618942,-73.94139862,1000505.23,185632.8653,"https://nycdob.github.io/CycloMedia/simple#1000505.22994472,185632.865332648"
70,114 MANHATTAN AVENUE,BK,11206,3070,8,3327961,301,3,1920,3798078,6/18/2021,Butler/2770,I2,N,,N,,N,,40.70635986,-73.94447327,999645.417,196624.2817,"https://nycdob.github.io/CycloMedia/simple#999645.41703181,196624.281669974"
71,114 WYCKOFF AVENUE,BK,11237,3259,29,3074241,304,3,1931,3798053,8/20/2021,Butler/2770,A8,Y,39046377R,Y,Shed,N,Shed- section on 1 side of building,40.70359039,-73.9185791,1006825.623,195620.8933,"https://nycdob.github.io/CycloMedia/simple#1006825.62314381,195620.893256813"
72,115 COLUMBIA STREET,BK,11201,309,1,3003440,306,4,1900,3798123,8/25/2021,Butler/2770,I2,N,,N,,N,,40.68777847,-74.00109863,983945.7073,189849.6558,"https://nycdob.github.io/CycloMedia/simple#983945.707289562,189849.655783564"
73,1185 BEDFORD AVENUE,BK,11216,1832,5,3052194,303,4,1900,3797962,7/8/2021,Butler/2770,A8,Y,39044085X,Y,Shed,N,Shed - both sides of building,40.68275833,-73.95349121,997149.7199,188024.0951,"https://nycdob.github.io/CycloMedia/simple#997149.719923466,188024.09513022"
74,1192 DEAN STREET,BK,11216,1212,42,3030331,308,4,1893,3798071,10/13/2021,Butler/2770,I2,N,,N,,N,,40.67665863,-73.95002747,998111.6642,185802.3286,"https://nycdob.github.io/CycloMedia/simple#998111.664193809,185802.328576401"
75,1224 BEDFORD AVENUE,BK,11216,2000,17,3057453,303,4,1930,3797973,7/8/2021,Butler/2770,I2,N,,N,,N,,40.68196106,-73.95391846,997031.3737,187733.5642,"https://nycdob.github.io/CycloMedia/simple#997031.373703465,187733.564215228"
76,124 BEDFORD AVENUE,BK,11249,2297,20,3061611,301,4,1900,3797991,8/10/2021,Leon/2769,A8,Y,35582485H,N,,N,,40.71969986,-73.9560318,996438.326,201482.6273,"https://nycdob.github.io/CycloMedia/simple#996438.326005057,201482.627268225"
77,125 MALCOLM X BOULEVARD,BK,11221,1632,6,3044525,303,4,1931,3798096,7/21/2021,Butler/2770,A8,Y,39044732N,Y,Shed,N,Shed - part of one side of building,40.68920898,-73.93005371,1003648.291,190378.5743,"https://nycdob.github.io/CycloMedia/simple#1003648.29058772,190378.574345142"
78,134 NORMAN AVENUE,BK,11222,2649,8,3066179,301,4,1930,3798022,8/11/2021,Leon/2769,I2,N,,N,,N,,40.72605896,-73.94922638,998323.4374,203800.4629,"https://nycdob.github.io/CycloMedia/simple#998323.437392309,203800.462855637"
79,141 ROCKAWAY AVENUE,BK,11233,1552,7,3042231,316,4,1910,3798091,6/15/2021,Butler/2770,I2,N,,N,,N,,40.67802048,-73.91060638,1009045.692,186307.1871,"https://nycdob.github.io/CycloMedia/simple#1009045.69186638,186307.187146723"
80,142 ROGERS AVENUE,BK,11216,1253,27,3032199,308,4,1931,3798077,10/13/2021,Butler/2770,I2,N,,N,,N,,40.67158127,-73.95327759,997211.1397,183952.0042,"https://nycdob.github.io/CycloMedia/simple#997211.139748141,183952.004193068"
81,143 BERRY STREET,BK,11249,2327,1,3062069,301,4,1910,3798001,8/10/2021,Leon/2769,I2,N,,N,,N,,40.71805954,-73.95934296,995520.7537,200884.5655,"https://nycdob.github.io/CycloMedia/simple#995520.753693223,200884.56547223"
82,144 WYCKOFF AVENUE,BK,11237,3270,38,3074548,304,3,1910,3798058,8/24/2021,Butler/2770,A8,Y,39046471N,Y,Shed,N,,40.70285034,-73.91732788,1007172.798,195351.5959,"https://nycdob.github.io/CycloMedia/simple#1007172.79797439,195351.595895141"
83,146 WYTHE AVENUE,BK,11249,2309,26,3061734,301,4,1910,3797995,8/10/2021,Leon/2769,A8,Y,35582486J,N,,N,,40.72029114,-73.95996094,995349.0746,201697.5264,"https://nycdob.github.io/CycloMedia/simple#995349.074574634,201697.526444733"
84,1490 FULTON STREET,BK,11216,1863,41,3053820,303,4,1910,3797968,7/30/2021,Butler/2770,I2,N,,N,,N,,40.67969894,-73.94139099,1000506.491,186911.4852,"https://nycdob.github.io/CycloMedia/simple#1000506.49109705,186911.485150725"
85,159 GRAHAM AVENUE,BK,11206,3052,26,3071122,301,4,1920,3798036,8/24/2021,Butler/2770,A8,Y,39043080M,Y,Shed,N,Shed corner wrap - not entire,40.70745087,-73.94348907,999918.0343,197021.9439,"https://nycdob.github.io/CycloMedia/simple#999918.034268722,197021.943932399"
86,16 HAVEMEYER STREET,BK,11211,2314,26,3061850,301,4,1920,3798000,8/10/2021,Leon/2769,A8,Y,35582484X,N,,N,,40.71619034,-73.95334625,997183.438,200204.3874,"https://nycdob.github.io/CycloMedia/simple#997183.438031882,200204.387370646"
87,170 7 AVENUE,BK,11215,966,48,3020693,306,4,1920,3798023,8/26/2021,Butler/2770,I2,N,,N,,N,,40.67190933,-73.97772217,990430.2084,184068.8553,"https://nycdob.github.io/CycloMedia/simple#990430.208428144,184068.855337307"
88,180 WILSON AVENUE,BK,11221,3245,30,3073801,304,4,1931,3798048,8/18/2021,Butler/2770,I2,N,,N,,N,,40.69937897,-73.92389679,1005352.543,194085.2224,"https://nycdob.github.io/CycloMedia/simple#1005352.54308473,194085.22244364"
89,184 LEE AVENUE,BK,11211,2225,31,3060992,301,4,1931,3797984,8/10/2021,Leon/2769,I2,N,,N,,N,,40.70225143,-73.9562912,996369.5922,195125.6023,"https://nycdob.github.io/CycloMedia/simple#996369.592218637,195125.602252647"
90,185 5 AVENUE,BK,11217,950,1,3019583,306,4,1920,3798018,8/23/2021,Butler/2770,I2,N,,N,,N,,40.67705917,-73.9797287,989873.1679,185944.9536,"https://nycdob.github.io/CycloMedia/simple#989873.167875558,185944.953619227"
91,187 DEKALB AVENUE,BK,11205,2089,66,3058471,302,4,1860,3797976,6/22/2021,Butler/2770,A8,Y,39043222Z,Y,Shed,N,Shed along  2 sides( Landmark building). Owner stated he will install.,40.68980026,-73.97234344,991920.1976,190587.4614,"https://nycdob.github.io/CycloMedia/simple#991920.197574139,190587.461394563"
92,187 JEFFERSON AVENUE,BK,11216,1828,92,3051975,303,4,1901,3797961,7/27/2021,Butler/2770,I2,N,,N,,N,,40.68350983,-73.95004272,998106.0107,188298.4148,"https://nycdob.github.io/CycloMedia/simple#998106.010661811,188298.414791554"
93,194 IRVING AVENUE,BK,11237,3269,36,3074500,304,4,1931,3798055,8/20/2021,Butler/2770,I2,N,,N,,N,,40.70129013,-73.91886902,1006746.014,194782.7657,"https://nycdob.github.io/CycloMedia/simple#1006746.01437914,194782.765667975"
94,194 WILSON AVENUE,BK,11221,3245,37,3325532,304,3,1931,3798076,8/18/2021,Butler/2770,I2,N,,N,,N,,40.69908905,-73.92337799,1005496.49,193979.7217,"https://nycdob.github.io/CycloMedia/simple#1005496.4899753,193979.721670389"
95,206 MALCOLM X BOULEVARD,BK,11221,1651,41,3045499,303,3,1910,3798099,7/30/2021,Butler/2770,I2,N,,N,,N,,40.68621063,-73.93002319,1003657.627,189286.1953,"https://nycdob.github.io/CycloMedia/simple#1003657.62718321,189286.195296317"
96,207 JOHNSON AVENUE,BK,11206,3062,26,3071225,301,4,1920,3798038,6/18/2021,Butler/2770,A8,Y,39043124P,N,,N,,40.70692062,-73.94158173,1000446.973,196829.1048,"https://nycdob.github.io/CycloMedia/simple#1000446.9725153,196829.10475114"
97,2208 FULTON STREET,BK,11233,1552,41,3042262,316,4,1910,3798093,6/15/2021,Butler/2770,I2,N,,N,,N,,40.67789078,-73.90815735,1009725.034,186260.6367,"https://nycdob.github.io/CycloMedia/simple#1009725.03368355,186260.636714891"
98,222 PALMETTO STREET,BK,11221,3352,1,3076617,304,3,1931,3798060,8/18/2021,Butler/2770,I2,N,,N,,N,,40.69490814,-73.91526031,1007748.87,192458.5666,"https://nycdob.github.io/CycloMedia/simple#1007748.86998497,192458.566576228"
99,223 COURT STREET,BK,11201,396,10,3006301,306,4,1920,3798126,8/25/2021,Butler/2770,I2,N,,N,,N,,40.68626022,-73.99372101,985991.7941,189296.5736,"https://nycdob.github.io/CycloMedia/simple#985991.794076636,189296.573556393"
100,224 BERRY STREET,BK,11249,2364,25,3062442,301,4,1910,3798002,8/17/2021,Butler/2770,I2,N,,N,,N,,40.7157402,-73.96237183,994681.4968,200039.184,"https://nycdob.github.io/CycloMedia/simple#994681.49684155,200039.1839609"
101,227 12 STREET,BK,11215,1022,1,3022848,306,4,1931,3798035,8/23/2021,Butler/2770,A8,Y,39046437J,N,,N,,40.66849136,-73.98986053,987063.2007,182822.9694,"https://nycdob.github.io/CycloMedia/simple#987063.200726464,182822.969377637"
102,232 7 AVENUE,BK,11215,983,45,3320092,306,4,1931,3798068,8/26/2021,Butler/2770,I2,N,,N,,N,,40.67010117,-73.97920227,990019.7886,183409.9905,"https://nycdob.github.io/CycloMedia/simple#990019.788645297,183409.99051331"
103,240A SOUTH 3 STREET,BK,11211,2433,25,3063306,301,4,1920,3798007,8/11/2021,Leon/2769,I2,N,,N,,N,,40.71072006,-73.95825195,995824.4621,198210.7126,"https://nycdob.github.io/CycloMedia/simple#995824.462075308,198210.71255222"
104,241 SMITH STREET,BK,11231,409,1,3006540,306,3,1931,3798127,8/25/2021,Butler/2770,I2,N,,N,,N,,40.68355942,-73.99237061,986366.397,188312.6234,"https://nycdob.github.io/CycloMedia/simple#986366.397001967,188312.62342456"
105,241 VAN BUREN STREET,BK,11221,1609,46,3043538,303,3,1931,3798094,7/21/2021,Butler/2770,I2,N,,N,,N,,40.69102859,-73.93681335,1001773.191,191040.0865,"https://nycdob.github.io/CycloMedia/simple#1001773.19131956,191040.086473554"
106,244 MALCOLM X BOULEVARD,BK,11233,1661,42,3046162,303,4,1901,3798100,6/15/2021,Butler/2770,I2,N,,N,,N,,40.68471909,-73.92967224,1003755.395,188742.8621,"https://nycdob.github.io/CycloMedia/simple#1003755.39536038,188742.86206539"
107,247 MALCOLM X BOULEVARD,BK,11233,1662,1,3340028,303,4,1927,3802149,6/16/2021,Butler/2770,A8,Y,39042999N,Y,Shed,N,Shed on part of one side of building,40.6843605,-73.92907715,1003920.546,188612.3505,"https://nycdob.github.io/CycloMedia/simple#1003920.54594871,188612.350515395"
108,246 11 STREET,BK,11215,1022,8,3022853,306,6,1931,3798037,8/23/2021,Butler/2770,A8,Y,39046424K,N,,N,,40.66889191,-73.98964691,987122.444,182968.9077,"https://nycdob.github.io/CycloMedia/simple#987122.444046304,182968.907734066"
109,248 COURT STREET,BK,11201,312,36,3003542,306,4,1886,3798124,8/25/2021,Butler/2770,A8,Y,39046557Y,Y,Shed,N,,40.6856308,-73.99462128,985742.1292,189067.241,"https://nycdob.github.io/CycloMedia/simple#985742.129221633,189067.241009817"
110,251 3 AVENUE,BK,11215,441,7,3007359,306,4,1931,3797980,10/1/2021,Leon/2769,A8,Y,39048569K,N,,N,,40.67811966,-73.9852829,988332.5,186331.0129,"https://nycdob.github.io/CycloMedia/simple#988332.500025138,186331.012886479"
111,253 VAN BRUNT STREET,BK,11231,530,8,3008381,306,4,1925,3797983,6/11/2021,Butler/2770,A8,Y,39042662H,N,,N,,40.67977905,-74.00971985,981554.447,186935.3834,"https://nycdob.github.io/CycloMedia/simple#981554.446980223,186935.383396894"
112,256 GRAHAM AVENUE,BK,11206,2789,1,3069606,301,4,1920,3798030,6/17/2021,Butler/2770,I2,N,,N,,N,,40.71104813,-73.94348907,999917.1888,198332.5335,"https://nycdob.github.io/CycloMedia/simple#999917.188797966,198332.533502817"
113,262 MALCOLM X BOULEVARD,BK,11233,1666,41,3046512,303,4,1892,3798101,6/15/2021,Butler/2770,I2,N,,N,,N,,40.68400955,-73.92955017,1003789.459,188484.3833,"https://nycdob.github.io/CycloMedia/simple#1003789.45861247,188484.383251637"
114,270 5 AVENUE,BK,11215,964,36,3020591,306,4,1921,3798021,9/24/2021,Leon/2769,I2,N,,N,,N,,40.67462921,-73.98213196,989206.7414,185059.5049,"https://nycdob.github.io/CycloMedia/simple#989206.74138689,185059.504930809"
115,279 WYCKOFF AVENUE,BK,11237,3320,1,3075982,304,3,1931,3798059,8/19/2021,Butler/2770,I2,N,,N,,N,,40.70101929,-73.91327667,1008296.733,194685.5762,"https://nycdob.github.io/CycloMedia/simple#1008296.73273438,194685.576229811"
116,281 MALCOLM X BOULEVARD,BK,11233,1677,8,3047201,303,4,1910,3798105,6/14/2021,Butler/2770,I2,N,,N,,N,,40.68259811,-73.92875671,1004009.941,187970.3331,"https://nycdob.github.io/CycloMedia/simple#1004009.94078305,187970.33309865"
117,289 7 AVENUE,BK,11215,1088,6,3025740,306,4,1888,3798043,9/24/2021,Leon/2769,A8,Y,39048050Y,Y,Shed,Y,Emailed T. Lynch - Sidewalk shed along part of one side of building,40.66790009,-73.98040009,989687.6866,182607.9984,"https://nycdob.github.io/CycloMedia/simple#989687.686619222,182607.998350888"
118,298 MAC DONOUGH STREET,BK,11233,1675,1,3047065,303,4,1888,3798104,6/14/2021,Butler/2770,I2,N,,N,,N,,40.68181992,-73.93464661,1002376.57,187685.5423,"https://nycdob.github.io/CycloMedia/simple#1002376.57036214,187685.542329639"
119,301 TOMPKINS AVENUE,BK,11221,1805,1,3050715,303,4,1931,3798118,6/29/2021,Butler/2770,I2,N,,N,,N,,40.68778992,-73.94452667,999634.8961,189858.6961,"https://nycdob.github.io/CycloMedia/simple#999634.896055475,189858.696119815"
120,303 TOMPKINS AVENUE,BK,11221,1810,9,3050979,303,4,1931,3798119,6/29/2021,Butler/2770,I2,N,,N,,N,,40.68754959,-73.94444275,999658.2251,189771.1517,"https://nycdob.github.io/CycloMedia/simple#999658.225077048,189771.151675478"
121,309 7 AVENUE,BK,11215,1090,4,3025856,306,4,1920,3798045,9/23/2021,Leon/2769,I2,N,,N,,N,,40.66728973,-73.98088837,989552.2794,182385.5969,"https://nycdob.github.io/CycloMedia/simple#989552.279409721,182385.596892804"
122,31 5 AVENUE,BK,11217,931,8,3018480,306,4,1931,3798014,9/24/2021,Leon/2769,I2,N,,N,,N,,40.68193054,-73.9764328,990786.8944,187719.9625,"https://nycdob.github.io/CycloMedia/simple#990786.894394562,187719.962536395"
123,314 7 AVENUE,BK,11215,1006,37,3022168,306,4,1889,3798034,9/23/2021,Leon/2769,I2,N,,N,,N,,40.66751862,-73.98139191,989412.5714,182468.9579,"https://nycdob.github.io/CycloMedia/simple#989412.571355805,182468.957946554"
124,318 TOMPKINS AVENUE,BK,11216,1814,31,3051170,303,4,1931,3798121,6/29/2021,Butler/2770,I2,N,,N,,N,,40.6867485,-73.94484711,999546.2666,189479.2205,"https://nycdob.github.io/CycloMedia/simple#999546.26663956,189479.220500812"
125,327 COURT STREET,BK,11231,428,9,3007010,306,3,1900,3797977,9/24/2021,Leon/2769,I2,N,,N,,N,,40.6828804,-73.99536896,985534.8199,188065.1787,"https://nycdob.github.io/CycloMedia/simple#985534.819924966,188065.178709477"
126,331 NOSTRAND AVENUE,BK,11216,1803,1,3050609,303,4,1931,3798116,6/23/2021,Butler/2770,I2,N,,N,,N,,40.68708038,-73.95065308,997935.9953,189599.1737,"https://nycdob.github.io/CycloMedia/simple#997935.995253801,189599.173672974"
127,336 MCGUINNESS BOULEVARD,BK,11222,2524,8,3064215,301,4,1928,3798010,8/11/2021,Leon/2769,A8,Y,35582488N,N,,N,,40.73390961,-73.95188904,997583.8506,206660.2819,"https://nycdob.github.io/CycloMedia/simple#997583.850616887,206660.281939149"
128,347 HOYT STREET,BK,11231,451,8,3007627,306,4,1884,3797981,10/25/2021,Butler/2770,A8,Y,39049920N,N,,N,,40.67934036,-73.99243164,986349.6031,186775.4969,"https://nycdob.github.io/CycloMedia/simple#986349.603072301,186775.49690564"
129,351 BAINBRIDGE STREET,BK,11233,1683,50,3047662,303,4,1910,3798108,6/15/2021,Butler/2770,I2,N,,N,,N,,40.68215942,-73.92273712,1005679.633,187811.921,"https://nycdob.github.io/CycloMedia/simple#1005679.63330981,187811.921013892"
130,358 BROADWAY,BK,11211,2153,1,3059767,301,4,1910,3797979,8/17/2021,Butler/2770,I2,N,,N,,N,,40.70727921,-73.95554352,996575.973,196957.4769,"https://nycdob.github.io/CycloMedia/simple#996575.973039478,196957.476869732"
131,359 MYRTLE AVENUE,BK,11205,2045,100,3058117,302,4,1957,3797975,6/16/2021,Butler/2770,A8,Y,39042950M,Y,Shed,N,Shed on 2 sides of building,40.69338989,-73.97171783,992093.2714,191895.3239,"https://nycdob.github.io/CycloMedia/simple#992093.271374971,191895.323936313"
132,366 5 AVENUE,BK,11215,987,39,3021348,306,4,1920,3798025,10/25/2021,Butler/2770,I2,N,,N,,N,,40.67163086,-73.98462677,988514.9068,183966.9894,"https://nycdob.github.io/CycloMedia/simple#988514.906812549,183966.989399314"
133,380 MARCUS GARVEY BLVD,BK,11216,1836,51,3052530,303,4,1900,3797964,7/22/2021,Butler/2770,I2,N,,N,,N,,40.6841011,-73.93843842,1001324.304,188515.8802,"https://nycdob.github.io/CycloMedia/simple#1001324.30376589,188515.880235896"
134,380 SOUTH 2 STREET,BK,11211,2425,10,3063209,301,4,1910,3798005,8/17/2021,Butler/2770,I2,N,,N,,N,,40.70952988,-73.95231628,997470.2803,197777.9342,"https://nycdob.github.io/CycloMedia/simple#997470.280305967,197777.934218317"
135,39 GRANT SQUARE,BK,11216,1212,1,3030299,308,4,1910,3798069,10/13/2021,Butler/2770,I2,N,,N,,N,,40.6763382,-73.95237732,997459.9316,185685.2235,"https://nycdob.github.io/CycloMedia/simple#997459.931573391,185685.223495647"
136,402 12 STREET,BK,11215,1030,40,3023282,306,4,1890,3798041,8/26/2021,Butler/2770,I2,N,,N,,N,,40.66500092,-73.98336792,988864.5688,181551.5789,"https://nycdob.github.io/CycloMedia/simple#988864.568842888,181551.57887581"
137,404 MARCUS GARVEY BLVD,BK,11216,1847,35,3053172,303,4,1896,3797966,7/22/2021,Butler/2770,I2,N,,N,,N,,40.68299866,-73.93831635,1001358.442,188114.2534,"https://nycdob.github.io/CycloMedia/simple#1001358.44247714,188114.253414482"
138,414 4 AVENUE,BK,11215,992,42,3021566,306,4,1931,3798032,6/17/2021,Leon/2769,I2,N,,N,,N,,40.67177963,-73.98790741,987604.8538,184021.0477,"https://nycdob.github.io/CycloMedia/simple#987604.853842631,184021.047690138"
139,420 CLINTON STREET,BK,11231,350,24,3004772,306,4,1931,3798125,10/21/2021,Butler/2770,A8,Y,39049801K,Y,Shed,N,Shed one side of building,40.68225861,-73.99849701,984667.2531,187838.6122,"https://nycdob.github.io/CycloMedia/simple#984667.25309056,187838.612233475"
140,421 COLUMBIA STREET,BK,11231,534,10,3008432,306,4,1931,3797987,6/11/2021,Butler/2770,I2,N,,N,,N,,40.67768097,-74.00595856,982597.6447,186170.899,"https://nycdob.github.io/CycloMedia/simple#982597.644696966,186170.899033472"
141,426 PROSPECT AVENUE,BK,11215,870,6,3016559,307,4,1935,3798013,10/13/2021,Butler/2770,I2,N,,N,,N,,40.65988922,-73.98396301,988699.8162,179689.2125,"https://nycdob.github.io/CycloMedia/simple#988699.816219643,179689.212521806"
142,43 HICKS STREET,BK,11201,216,9,3001593,302,4,1876,3798110,7/20/2021,Butler/2770,I2,N,,N,,N,,40.70035172,-73.99324036,986124.7006,194430.5305,"https://nycdob.github.io/CycloMedia/simple#986124.700634971,194430.530480057"
143,431 DEKALB AVENUE,BK,11205,1924,61,3055135,303,4,1905,3797971,6/21/2021,Butler/2770,A8,Y,39043252J,N,,N,,40.6905899,-73.96018219,995292.6633,190876.449,"https://nycdob.github.io/CycloMedia/simple#995292.663270131,190876.449005559"
144,439 9 STREET,BK,11215,1090,74,3025919,306,4,1881,3798047,10/25/2021,Butler/2770,I2,N,,N,,N,,40.66704178,-73.98124695,989452.8226,182295.2404,"https://nycdob.github.io/CycloMedia/simple#989452.822587639,182295.240446225"
145,446 PARK PLACE,BK,11238,1167,10,3337840,308,4,1925,3798086,10/25/2021,Butler/2770,I2,N,,N,,N,,40.67527008,-73.96304321,994501.6002,185294.6488,"https://nycdob.github.io/CycloMedia/simple#994501.600219727,185294.64881748"
146,4524 3 AVENUE,BK,11220,745,51,3011491,307,4,1921,3797996,9/29/2021,Leon/2769,I2,N,,N,,N,,40.65024185,-74.01255798,980765.7064,176174.2514,"https://nycdob.github.io/CycloMedia/simple#980765.706431717,176174.251375899"
147,458 UNION AVENUE,BK,11211,2756,1,3068630,301,4,1930,3798028,8/11/2021,Leon/2769,A8,Y,35582487L,N,,N,,40.71421814,-73.95142365,997716.807,199486.1447,"https://nycdob.github.io/CycloMedia/simple#997716.80704388,199486.144712642"
148,46 HARRISON AVENUE,BK,11211,2213,38,3060664,301,4,1910,3797982,8/18/2021,Butler/2770,A8,Y,39046210P,N,,N,,40.70552063,-73.95348358,997147.4325,196317.07,"https://nycdob.github.io/CycloMedia/simple#997147.432526469,196317.07001406"
149,4602 3 AVENUE,BK,11220,754,38,3011812,307,4,1930,3797998,9/29/2021,Leon/2769,I2,N,,N,,N,,40.65005112,-74.01271057,980723.3545,176104.7692,"https://nycdob.github.io/CycloMedia/simple#980723.354482308,176104.769231394"
150,465 MARCUS GARVEY BLVD,BK,11233,1674,79,3047064,303,4,1888,3798103,8/16/2021,Butler/2770,I2,N,,N,,N,,40.68119812,-73.93753052,1001576.861,187458.4194,"https://nycdob.github.io/CycloMedia/simple#1001576.86133164,187458.41942431"
151,474 CENTRAL AVENUE,BK,11221,3375,31,3077221,304,3,1913,3798063,8/24/2021,Butler/2770,I2,N,,N,,N,,40.69190979,-73.91481781,1007872.638,191366.2991,"https://nycdob.github.io/CycloMedia/simple#1007872.63811013,191366.299075723"
152,484 60 STREET,BK,11220,5782,37,3143442,307,4,1910,3798064,9/29/2021,Leon/2769,I2,N,,N,,N,,40.63938141,-74.01650238,979670.4383,172217.6789,"https://nycdob.github.io/CycloMedia/simple#979670.438281059,172217.678908482"
153,488 JEFFERSON AVENUE,BK,11221,1836,48,3052529,303,4,1900,3797963,7/22/2021,Butler/2770,I2,N,,N,,N,,40.68437958,-73.93847656,1001313.655,188617.3311,"https://nycdob.github.io/CycloMedia/simple#1001313.65450898,188617.331148475"
154,5002 3 AVENUE,BK,11220,789,38,3013159,307,4,1931,3798003,9/29/2021,Leon/2769,A8,Y,39048366K,?,,?,,40.64781952,-74.01506042,980071.1583,175291.8398,"https://nycdob.github.io/CycloMedia/simple#980071.158280134,175291.839754894"
155,5024 3 AVENUE,BK,11220,789,46,3013167,307,4,1931,3798004,9/29/2021,Leon/2769,A8,Y,39048374K,N,,N,,40.64744186,-74.01545715,979961.0424,175154.2669,"https://nycdob.github.io/CycloMedia/simple#979961.042358637,175154.26686731"
156,506 DECATUR STREET,BK,11233,1504,8,3040494,303,4,1910,3798090,6/15/2021,Butler/2770,I2,N,,N,,N,,40.68259048,-73.9223938,1005774.716,187969.0526,"https://nycdob.github.io/CycloMedia/simple#1005774.7157968,187969.052589387"
157,519 MYRTLE AVENUE,BK,11205,1893,61,3332262,302,4,1980,3798079,7/8/2021,Butler/2770,A8,Y,39044115H,N,,N,,40.69390869,-73.96396637,994242.7375,192085.127,"https://nycdob.github.io/CycloMedia/simple#994242.73754847,192085.127034396"
158,536 3 AVENUE,BK,11215,1026,42,3023079,306,4,1931,3798039,10/1/2021,Leon/2769,I2,N,,N,,N,,40.66925812,-73.99317169,986144.6238,183102.2326,"https://nycdob.github.io/CycloMedia/simple#986144.623823464,183102.232598647"
159,551 MYRTLE AVENUE,BK,11205,1895,73,3334738,302,4,1950,3798081,7/20/2021,Butler/2770,A8,Y,39044698Z,Y,Shed,N,Shed - both sides of building,40.69411087,-73.96209717,994761.0462,192159.0058,"https://nycdob.github.io/CycloMedia/simple#994761.046223134,192159.005823642"
160,551 NOSTRAND AVENUE,BK,11216,1867,1,3053939,303,4,1910,3797969,7/23/2021,Butler/2770,A8,Y,39044896J,N,,N,,40.67863846,-73.94941711,998280.548,186523.7343,"https://nycdob.github.io/CycloMedia/simple#998280.548042387,186523.734285817"
161,567 JEFFERSON AVENUE,BK,11221,1650,76,3045460,303,4,1910,3798098,8/17/2021,Butler/2770,I2,N,,N,,N,,40.68521118,-73.93533325,1002185.214,188920.9349,"https://nycdob.github.io/CycloMedia/simple#1002185.21444564,188920.934871972"
162,568 DRIGGS AVENUE,BK,11211,2328,23,3399902,301,3,1900,3798089,8/11/2021,Leon/2769,A8,Y,35582489P,Y,Shed,N,,40.71672058,-73.95703125,996161.8118,200397.0474,"https://nycdob.github.io/CycloMedia/simple#996161.811794311,200397.047418401"
163,570 VANDERBILT AVENUE,BK,11238,1137,56,3027882,308,4,1887,3798049,10/21/2021,Butler/2770,I2,N,,N,,N,,40.67961884,-73.96852112,992981.5485,186878.4331,"https://nycdob.github.io/CycloMedia/simple#992981.548469812,186878.433051482"
164,5724 5 AVENUE,BK,11220,847,44,3015688,307,4,1931,3798006,9/29/2021,Leon/2769,A8,Y,39048435P,N,,N,,40.64086151,-74.01513672,980049.5471,172756.8507,"https://nycdob.github.io/CycloMedia/simple#980049.547102883,172756.850730389"
165,5801 5 AVENUE,BK,11220,856,8,3016046,307,4,1931,3798009,9/29/2021,Leon/2769,I2,N,,N,,N,,40.64038849,-74.01481628,980138.4485,172584.5017,"https://nycdob.github.io/CycloMedia/simple#980138.448499888,172584.501665637"
166,5823 4 AVENUE,BK,11220,855,1,3015972,307,3,1931,3798008,9/29/2021,Leon/2769,I2,N,,N,,N,,40.64134979,-74.01744843,979408.0212,172934.8638,"https://nycdob.github.io/CycloMedia/simple#979408.02115497,172934.863825813"
167,59 NORMAN AVENUE,BK,11222,2618,40,3065558,301,4,1928,3798017,8/16/2021,Leon/2769,I2,N,,N,,N,,40.7251091,-73.95343781,997156.3292,203453.751,"https://nycdob.github.io/CycloMedia/simple#997156.329162225,203453.750950649"
168,592 UNION AVENUE,BK,11211,2721,1,3067872,301,4,1920,3798024,8/16/2021,Leon/2769,I2,N,,N,,N,,40.7182312,-73.95200348,997555.2644,200948.1359,"https://nycdob.github.io/CycloMedia/simple#997555.264387965,200948.135883138"
169,61 5 AVENUE,BK,11217,933,1,3018577,306,4,1920,3798016,10/1/2021,Leon/2769,I2,N,,N,,N,,40.68085861,-73.97715759,990585.9716,187329.3744,"https://nycdob.github.io/CycloMedia/simple#990585.971568048,187329.374406815"
170,629 GRAND AVENUE,BK,11238,1162,14,3028921,308,4,1990,3798065,10/26/2021,Butler/2770,I2,N,,N,,N,,40.67623138,-73.9626236,994617.8438,185644.9273,"https://nycdob.github.io/CycloMedia/simple#994617.843753636,185644.927316397"
171,634 CLASSON AVENUE,BK,11238,1141,43,3027990,308,4,1931,3798051,10/27/2021,Butler/2770,A8,Y,39050064H,N,,N,,40.67821884,-73.95918274,995571.9308,186369.4416,"https://nycdob.github.io/CycloMedia/simple#995571.930756226,186369.441615388"
172,643 MANHATTAN AVENUE,BK,11222,2645,29,3337787,301,4,1931,3798085,8/16/2021,Leon/2769,I2,N,,N,,N,,40.72406006,-73.95128632,997752.8837,203071.8777,"https://nycdob.github.io/CycloMedia/simple#997752.88374339,203071.877698645"
173,652 MYRTLE AVENUE,BK,11205,1913,21,3054972,303,4,1985,3797970,6/29/2021,Butler/2770,I2,N,,N,,N,,40.69419098,-73.95780945,995950.0393,192188.7358,"https://nycdob.github.io/CycloMedia/simple#995950.039251968,192188.735751063"
174,665 CLASSON AVENUE,BK,11238,1142,1,3028008,308,4,1931,3798052,10/15/2021,Butler/2770,I2,N,,N,,N,,40.67757034,-73.95881653,995673.6179,186133.2223,"https://nycdob.github.io/CycloMedia/simple#995673.617888808,186133.222271562"
175,672 GRAND STREET,BK,11211,2788,7,3069582,301,4,1920,3798031,8/16/2021,Leon/2769,I2,N,,N,,N,,40.71128845,-73.94541931,999382.0048,198419.7502,"https://nycdob.github.io/CycloMedia/simple#999382.004828975,198419.750191897"
176,712 NOSTRAND AVENUE,BK,11216,1233,43,3031210,308,4,1931,3798074,10/21/2021,Butler/2770,I2,N,,N,,N,,40.67419815,-73.95040131,998008.4767,184905.8468,"https://nycdob.github.io/CycloMedia/simple#998008.476736143,184905.846773565"
177,721 HENRY STREET,BK,11231,536,1,3008453,306,4,1920,3797990,6/14/2021,Butler/2770,A8,Y,39042748Z,Y,Shed,N,Shed at 2 sides of building,40.67630005,-74.0029068,983444.1056,185667.7475,"https://nycdob.github.io/CycloMedia/simple#983444.105602473,185667.74748072"
178,722 5 AVENUE,BK,11215,646,48,3009464,307,4,1930,3797994,9/21/2021,Butler/2770,I2,N,,N,,N,,40.66043854,-73.99471283,985717.2923,179888.9825,"https://nycdob.github.io/CycloMedia/simple#985717.292329058,179888.982463479"
179,736 NOSTRAND AVENUE,BK,11216,1233,54,3031219,308,4,1910,3798075,10/21/2021,Butler/2770,I2,N,,N,,N,,40.6735611,-73.95044708,997995.9121,184673.7439,"https://nycdob.github.io/CycloMedia/simple#997995.912128717,184673.743891314"
180,740 MYRTLE AVENUE,BK,11205,1753,21,3048580,303,4,1931,3798113,8/17/2021,Butler/2770,I2,N,,N,,N,,40.69467926,-73.95323944,997217.2306,192367.2741,"https://nycdob.github.io/CycloMedia/simple#997217.230615214,192367.274107888"
181,75 MONITOR STREET,BK,11222,2729,5,3068021,301,3,1928,3798027,8/16/2021,Butler/2770,A8,Y,39046080X,N,,N,,40.72180939,-73.94226837,1000253.025,202253.4082,"https://nycdob.github.io/CycloMedia/simple#1000253.02539663,202253.408206969"
182,777 FULTON STREET,BK,11217,2117,33,3059331,302,4,1930,3797978,7/20/2021,Butler/2770,I2,N,,N,,N,,40.68616104,-73.97358704,991575.7183,189261.4811,"https://nycdob.github.io/CycloMedia/simple#991575.718276218,189261.481106892"
183,78 7 AVENUE,BK,11217,954,39,3337420,306,4,1921,3798084,8/26/2021,Butler/2770,I2,N,,N,,N,,40.67509079,-73.97532654,991094.424,185228.1299,"https://nycdob.github.io/CycloMedia/simple#991094.423963219,185228.129921645"
184,7802 3 AVENUE,BK,11209,5968,41,3322519,310,4,1928,3798072,10/26/2021,Butler/2770,I2,N,,N,,N,,40.62924957,-74.02903748,976190.312,168527.2821,"https://nycdob.github.io/CycloMedia/simple#976190.312039226,168527.282089815"
185,787 MAC DONOUGH STREET,BK,11233,1498,45,3040219,316,4,1931,3798083,7/16/2021,Butler/2770,I2,N,,N,,N,,40.68452072,-73.91494751,1007839.284,188674.2119,"https://nycdob.github.io/CycloMedia/simple#1007839.28417422,188674.211940229"
186,79 BERRY STREET,BK,11249,2304,1,3061662,301,4,1910,3797993,6/29/2021,Leon/2769,I2,N,,N,,N,,40.71968842,-73.95749664,996032.276,201478.2588,"https://nycdob.github.io/CycloMedia/simple#996032.275964141,201478.258838639"
187,794 GREENE AVENUE,BK,11221,1619,45,3043982,303,4,1931,3798095,7/21/2021,Butler/2770,I2,N,,N,,N,,40.68983841,-73.9365921,1001834.862,190606.5138,"https://nycdob.github.io/CycloMedia/simple#1001834.86179988,190606.513849899"
188,803 HALSEY STREET,BK,11233,1491,67,3039982,303,4,1910,3798082,7/21/2021,Butler/2770,A8,Y,39044707L,N,,N,,40.6853981,-73.9203186,1006349.349,188992.4662,"https://nycdob.github.io/CycloMedia/simple#1006349.34850581,188992.466224983"
189,812 MARCY AVENUE,BK,11216,1813,53,3051124,303,3,1931,3798120,7/23/2021,Butler/2770,I2,N,,N,,N,,40.68592834,-73.94760895,998780.4883,189179.9422,"https://nycdob.github.io/CycloMedia/simple#998780.488315478,189179.942227975"
190,82 BERRY STREET,BK,11249,2310,23,3061752,301,4,1910,3797997,6/29/2021,Leon/2769,A8,Y,35578220K,N,,N,,40.71979141,-73.95813751,995854.6097,201515.6958,"https://nycdob.github.io/CycloMedia/simple#995854.609652802,201515.695771649"
191,854 BUSHWICK AVENUE,BK,11221,3252,35,3074020,304,4,1931,3798050,8/20/2021,Butler/2770,I2,N,,N,,N,,40.69396973,-73.92681122,1004546.067,192113.7887,"https://nycdob.github.io/CycloMedia/simple#1004546.06700739,192113.78872247"
192,888 FRANKLIN AVENUE,BK,11225,1188,56,3029708,309,3,1915,3798067,10/26/2021,Butler/2770,I2,N,,N,N,N,,40.66820908,-73.95918274,995573.6299,182722.6018,"https://nycdob.github.io/CycloMedia/simple#995573.6298998,182722.601796225"
193,899 BROADWAY,BK,11206,3136,1,3071782,304,4,1931,3798042,6/17/2021,Butler/2770,I2,N,,N,,N,,40.69805908,-73.93669891,1001803.077,193601.5233,"https://nycdob.github.io/CycloMedia/simple#1001803.07675847,193601.523279816"
194,94 BEDFORD AVENUE,BK,11249,2290,17,3061540,301,4,1910,3797988,8/16/2021,Butler/2770,I2,N,,N,,N,,40.72064972,-73.95506287,996706.7346,201828.8267,"https://nycdob.github.io/CycloMedia/simple#996706.734588966,201828.826707065"
195,94 GRAHAM AVENUE,BK,11206,3097,108,3071455,301,4,1972,3798040,6/21/2021,Butler/2770,I2,N,,N,,N,,40.70439148,-73.94245148,1000206.438,195907.5039,"https://nycdob.github.io/CycloMedia/simple#1000206.43821947,195907.50390406"
196,942 BERGEN STREET,BK,11238,1149,49,3028305,308,4,1931,3798054,10/15/2021,Butler/2770,I2,N,,N,,N,,40.67665863,-73.95599365,996456.7784,185801.4408,"https://nycdob.github.io/CycloMedia/simple#996456.778395966,185801.44078289"
197,945 JEFFERSON AVE/54 Howard Ave,BK,11221,1485,44,3039775,303,4,1905,3798080,10/26/2021,Butler/2770,A8,Y,39049989L,N,,N,,40.68682098,-73.92093658,1006177.489,189510.707,"https://nycdob.github.io/CycloMedia/simple#1006177.48894139,189510.706986398"
198,947 MANHATTAN AVENUE,BK,11222,2540,46,3064438,301,4,1928,3798015,7/6/2021,Butler/2770,I2,N,,N,,N,,40.73168945,-73.95482635,996770.2227,205850.9748,"https://nycdob.github.io/CycloMedia/simple#996770.222650975,205850.974830732"
199,96 BERRY STREET,BK,11249,2310,30,3061759,301,4,1910,3797999,8/16/2021,Butler/2770,I2,N,,N,,N,,40.71939087,-73.95851898,995748.936,201369.7164,"https://nycdob.github.io/CycloMedia/simple#995748.935979635,201369.716404811"
200,970 MANHATTAN AVENUE,BK,11222,2541,8,3321485,301,4,1931,3798070,6/29/2021,Leon/2769,I2,N,,N,,N,,40.73223877,-73.95426941,996924.4733,206051.1893,"https://nycdob.github.io/CycloMedia/simple#996924.473326728,206051.189325303"
201,971 MANHATTAN AVENUE,BK,11222,2532,47,3064284,301,4,1928,3798011,6/29/2021,Leon/2769,I2,N,,N,,N,,40.73241043,-73.9549408,996738.3677,206113.6341,"https://nycdob.github.io/CycloMedia/simple#996738.367727801,206113.634082317"
202,113-19 ATLANTIC AVENUE,QN,11418,9320,117,4195672,409,4,1930,4845674,7/16/2021,Butler/2770,I2,N,,N,,N,,40.69313049,-73.83244324,1030715.419,191843.9891,"https://nycdob.github.io/CycloMedia/simple#1030715.41919614,191843.98906523"
