ID,Address,Boro,Block,Lot,BIN,CB,NumFloors,VacateOrder,SWO,OT_Work,ConstructionYear,ComplaintNum,InspectionDate,InspectorNameBadge,ComplaintDispostion,NOV_Issued,NOV_Num,EmgncyOrderIssued,EmgncyOrderType,Refer_FEU,Comments,Lat,Long,X,Y,CycloMedia
1,1033 LOWELL STREET,BX,2757,66,2006286,202,3,NO,NO,YES,1930,2305333,8/25/2020,Dupree/2771,A8,Y,35475623N,N,,N,,40.82606125,-73.88757324,1015365.217,240250.5442,"https://nycdob.github.io/CycloMedia/simple#1015365.21728505,240250.544154808"
2,4801 8 AVENUE,BK,778,10,3012814,312,3,NO,NO,YES/2017,1934,3765343,9/2/2020,Butler/2770,I2,N,,N,,N,,40.64199829,-74.00238037,983589.7864,173170.6567,"https://nycdob.github.io/CycloMedia/simple#983589.786413476,173170.656661317"
3,486 DEAN STREET,BK,1136,8,3027812,308,4,NO,NO,YES/2017,1930,3765345,8/25/2020,Butler/2770,I2,N,,N,,N,,40.68130875,-73.97411346,991430.2442,187493.608,"https://nycdob.github.io/CycloMedia/simple#991430.244157717,187493.608002231"
4,788 FRANKLIN AVENUE,BK,1178,53,3029603,308,4,YES,YES,YES/2019,1925,3765347,8/25/2020,Butler/2770,I2,N,,N,,N,,40.67171097,-73.95790863,995926.4714,183998.6065,"https://nycdob.github.io/CycloMedia/simple#995926.471385717,183998.606462061"
5,108 ALBANY AVENUE,BK,1210,39,3030210,308,4,NO,YES,YES/2016,1931,3765348,8/25/2020,Butler/2770,I2,N,,N,,N,,40.67681885,-73.93888855,1001201.313,185862.6601,"https://nycdob.github.io/CycloMedia/simple#1001201.31254205,185862.66014865"
6,374 RALPH AVENUE,BK,1344,125,3035746,308,4,NO,YES,YES/2019,1910,3765349,8/25/2020,Butler/2770,I2,N,,N,,N,,40.67602158,-73.92220306,1005829.744,185575.8615,"https://nycdob.github.io/CycloMedia/simple#1005829.74357389,185575.861509636"
7,1116 BEDFORD AVENUE,BK,1974,25,3056579,303,4  w/addition (3 orig),NO,YES,NO,1930,3765350,8/24/2020,Butler/2770,I2,N,,N,,N,,40.68635941,-73.95477295,996793.5487,189335.8865,"https://nycdob.github.io/CycloMedia/simple#996793.548719808,189335.886469901"
8,682 BEDFORD AVENUE,BK,2224,34,3335316,301,3,NO,NO,NO,1931,3765351,8/24/2020,Butler/2770,I2,N,,N,,N,,40.70080948,-73.95777893,995957.3404,194600.0547,"https://nycdob.github.io/CycloMedia/simple#995957.340418473,194600.054747313"
9,1549 DEKALB AVENUE,BK,3237,1,3073631,304,4,NO,NO,NO,1931,3765352,9/14/2020,Butler/2770,A8,Y,39028615Y,Y,IED for sidewalk shed,N,,40.70291901,-73.92095947,1006165.849,195375.6851,"https://nycdob.github.io/CycloMedia/simple#1006165.84887281,195375.685085803"
10,2253 STRAUSS STREET,BK,3597,6,3082249,316,2,NO,NO,NO,1930,3765353,9/9/2020,Butler/2770,I2,N,,N,,N,,40.65880966,-73.9134903,1008252.685,179307.3432,"https://nycdob.github.io/CycloMedia/simple#1008252.68492222,179307.343206808"
11,120 RIVERDALE AVENUE,BK,3598,34,3082284,316,3,NO,NO,NO,1930,3765355,9/9/2020,Butler/2770,A8,Y,39028338P,N,,N,,40.66020966,-73.9123764,1008561.228,179817.709,"https://nycdob.github.io/CycloMedia/simple#1008561.22826838,179817.708983973"
12,868 THOMAS S BOYLAND ST,BK,3599,1,3082296,316,3,NO,NO,NO,1930,3765356,9/9/2020,Butler/2770,I2,N,,N,,N,,40.65914154,-73.91124725,1008874.901,179428.8787,"https://nycdob.github.io/CycloMedia/simple#1008874.90086938,179428.878724888"
13,515 VERMONT STREET,BK,3791,1,3084515,305,3,NO,NO,YES/2018,1910,3765357,8/24/2020,Butler/2770,I2,N,,N,,N,,40.66674042,-73.89227295,1014135.926,182203.2652,"https://nycdob.github.io/CycloMedia/simple#1014135.92610846,182203.265236482"
14,41 NEW LOTS AVENUE,BK,3855,38,3085859,316,3,NO,NO,YES/2018,1930,3765358,9/14/2020,Butler/2770,I2,N,,N,,N,,40.65744019,-73.90352631,1011017.763,178811.2947,"https://nycdob.github.io/CycloMedia/simple#1011017.76272538,178811.294658229"
15,2718 PITKIN AVENUE,BK,4233,17,3095083,305,3,NO,NO,YES/2018,1925,3765359,8/24/2020,Butler/2770,A8,Y,39027451M/52Y,N,,Y,Refer to FEU 08/26/20 due to c rack lines,40.67517853,-73.87168884,1019841.843,185285.1984,"https://nycdob.github.io/CycloMedia/simple#1019841.84317431,185285.198377058"
16,876 BELMONT AVENUE,BK,4245,17,3095291,305,2,NO,NO,YES/2017,1925,3765372,8/31/2020,Butler/2770,I2,N,,N,,N,,40.6731987,-73.87661743,1018475.748,184561.9265,"https://nycdob.github.io/CycloMedia/simple#1018475.74846555,184561.926529646"
17,894 BELMONT AVENUE,BK,4245,24,3095298,305,2,NO,NO,NO,1925,3765375,8/31/2020,Butler/2770,I2,N,,N,,N,,40.67329025,-73.87597656,1018653.474,184595.5318,"https://nycdob.github.io/CycloMedia/simple#1018653.4735038,184595.531777397"
18,247 LINDEN BOULEVARD,BK,5085,68,3116689,317,4,NO,YES,YES/2017,1931,3765376,8/25/2020,Butler/2770,I2,N,,N,,N,,40.65293121,-73.94998169,998129.2983,177157.7714,"https://nycdob.github.io/CycloMedia/simple#998129.29834488,177157.771390483"
19,863 FLATBUSH AVENUE,BK,5089,11,3116853,314,4,NO,YES,NO,1931,3765377,9/4/2020,Butler/2770,I2,N,,N,,N,,40.6511116,-73.9585495,995752.2463,176493.5962,"https://nycdob.github.io/CycloMedia/simple#995752.246340469,176493.596209645"
20,1800 CHURCH AVENUE,BK,5099,39,3339384,314,4,NO,NO,NO,1916,3765379,9/4/2020,Butler/2770,A8,Y,39028208R,Y,IED for sidewalk shed,N,,40.64929962,-73.96289063,994547.9315,175832.9023,"https://nycdob.github.io/CycloMedia/simple#994547.931491882,175832.902321056"
21,2336 BEDFORD AVENUE,BK,5126,59,3117698,314,4,NO,YES,NO,1907,3765380,9/9/2020,Butler/2770,I2,N,,N,,N,,40.64673996,-73.95600128,996460.1367,174901.2329,"https://nycdob.github.io/CycloMedia/simple#996460.13665697,174901.232924566"
22,1420 CORTELYOU ROAD,BK,5157,10,3118680,314,3,NO,NO,YES/ACT,1930,3765381,9/9/2020,Butler/2770,I2,N,,N,,N,,40.64086151,-73.96450043,994102.4711,172758.4839,"https://nycdob.github.io/CycloMedia/simple#994102.471096724,172758.483929232"
23,99 CHURCH AVENUE,BK,5332,62,3124483,312,4,NO,YES,NO,1930,3765383,9/2/2020,Butler/2770,I2,N,,N,,N,,40.64297104,-73.97969818,989884.5114,173525.6996,"https://nycdob.github.io/CycloMedia/simple#989884.511356801,173525.699586391"
24,6202 20 AVENUE,BK,5534,41,3132869,311,3,NO,NO,NO,1931,3765384,9/1/2020,Butler/2770,I2,N,,N,,N,,40.61830902,-73.98441315,988577.6209,164540.3993,"https://nycdob.github.io/CycloMedia/simple#988577.620925978,164540.399315566"
25,6520 18 AVENUE,BK,5553,49,3133859,311,3,NO,NO,NO,1931,3765386,9/1/2020,Butler/2770,A8,Y,39027877J,N,,N,,40.61874008,-73.99093628,986766.6498,164697.191,"https://nycdob.github.io/CycloMedia/simple#986766.649810389,164697.190996721"
26,4826 NEW UTRECHT AVENUE,BK,5633,36,3137380,312,3,Partial      (since 2018),NO,NO,1920,3765387,9/3/2020,Butler/2770,A8,Y,39028061L,Y,IED for sidewalk shed,N,,40.63689041,-73.99497986,985643.6973,171309.7486,"https://nycdob.github.io/CycloMedia/simple#985643.69733189,171309.748637721"
27,5201 13 AVENUE,BK,5663,109,3138754,312,3,NO,NO,NO,1930,3765388,9/3/2020,Butler/2770,I2,N,,N,,N,,40.63312912,-73.99373627,985988.9453,169939.4318,"https://nycdob.github.io/CycloMedia/simple#985988.945329055,169939.431824565"
28,5301 FT HAMILTON PARKWAY,BK,5667,10,3138863,312,3,NO,NO,NO,1930,3765389,9/3/2020,Butler/2770,A8,Y,39028094H,N,,N,,40.63621902,-74.00035858,984150.869,171065.1035,"https://nycdob.github.io/CycloMedia/simple#984150.868952721,171065.103457734"
29,1015 56 STREET,BK,5681,1,3139611,312,4,NO,NO,NO,1920,3765391,9/3/2020,Butler/2770,A8,Y,39028121Y,Y,IED for sidewalk shed,N,,40.6349411,-74.0022583,983623.5974,170599.5309,"https://nycdob.github.io/CycloMedia/simple#983623.597369477,170599.530898064"
30,5802 FT HAMILTON PARKWAY,BK,5701,34,3140586,312,3,NO,NO,NO,1925,3735392,9/3/2020,Butler/2770,I2,N,,N,,N,,40.63414001,-74.00447845,983007.3765,170307.6959,"https://nycdob.github.io/CycloMedia/simple#983007.376489058,170307.695851803"
31,7122 FT HAMILTON PARKWAY,BK,5901,51,3146995,310,3,NO,NO,NO,1930,3765324,8/24/2020,Leon/2769,A8,Y,39027444Y,N,,N,,40.62747955,-74.01444244,980241.4243,167881.4113,"https://nycdob.github.io/CycloMedia/simple#980241.424343809,167881.411334306"
32,8301 3 AVENUE,BK,6017,10,3152411,310,4,NO,NO,NO,1923,3765325,8/31/2020,Butler/2770,A8,Y,39027823Y,N,,N,,40.62551117,-74.02990723,975948.426,167165.3652,"https://nycdob.github.io/CycloMedia/simple#975948.426040053,167165.365194231"
33,6901 15 AVENUE,BK,6158,9,3156587,311,3+,NO,NO,NO,1925,3765327,9/1/2020,Butler/2770,I2,N,,N,,N,,40.62081146,-73.99933624,984434.6578,165451.72,"https://nycdob.github.io/CycloMedia/simple#984434.657755226,165451.719999477"
34,7324 18 AVENUE,BK,6204,50,3159057,311,3,NO,PSWO,NO,1931,3765328,9/1/2020,Butler/2770,I2,N,,N,,N,,40.61421967,-73.99549866,985500.1323,163050.1894,"https://nycdob.github.io/CycloMedia/simple#985500.132330298,163050.18936947"
35,8502 21 AVENUE,BK,6346,38,3165846,311,3,NO,NO,NO,1928,3765329,9/2/2020,Butler/2770,I2,N,,N,,N,,40.60393906,-73.99577332,985424.057,159304.6936,"https://nycdob.github.io/CycloMedia/simple#985424.057023138,159304.693579644"
36,1900 BATH AVENUE,BK,6439,28,3168721,311,4,NO,NO,YES,1923,3765332,9/2/2020,Butler/2770,I2,N,,N,,N,,40.60240936,-74.00389099,983169.9152,158747.3804,"https://nycdob.github.io/CycloMedia/simple#983169.91520597,158747.38038981"
37,82 AVENUE O,BK,6599,1,3174258,311,3,NO,NO,NO,1927,3765333,9/2/2020,Butler/2770,I2,N,,N,,N,,40.61019135,-73.98191833,989270.8446,161583.0539,"https://nycdob.github.io/CycloMedia/simple#989270.844605133,161583.053852305"
38,1902 MERMAID AVENUE,BK,7060,12,3189559,313,3,NO,NO,YES(2019),1930,3765334,9/4/2020,Butler/2770,I2,N,,N,,N,,40.57625961,-73.9859314,988158.5834,149220.6576,"https://nycdob.github.io/CycloMedia/simple#988158.583378226,149220.657645389"
39,3028 CONEY ISLAND AVENUE,BK,7264,67,3196547,313,2,NO,NO,NO,1920,3765335,9/4/2020,Butler/2770,I2,N,,N,,N,,40.58253098,-73.96031189,995274.5308,151507.657,"https://nycdob.github.io/CycloMedia/simple#995274.530760467,151507.657008395"
40,259 BRIGHTON BEACH AVE,BK,8671,930,3244685,313,3,NO,NO,NO,1929,3765336,9/4/2020,Butler/2770,A8,Y,39028160R,N,,N,,40.57706833,-73.96531677,993885.1165,149516.8877,"https://nycdob.github.io/CycloMedia/simple#993885.11654456,149516.887695983"
41,43-01 QUEENS BOULEVARD,QN,162,8,4001925,402,3,NO,NO,YES(2019),1928,4820368,9/10/2020,Butler/2770,I2,N,,N,,N,,40.74386978,-73.92121887,1006080.508,210295.2409,"https://nycdob.github.io/CycloMedia/simple#1006080.50783613,210295.240876555"
42,54-43 METROPOLITAN AVENUE,QN,2639,1,4432276,405,3,Partial      (since 2018),NO,NO,1915,4820371,9/10/2020,Butler/2770,I2,N,,N,,N,,40.71329117,-73.90901184,1009474.625,199157.7874,"https://nycdob.github.io/CycloMedia/simple#1009474.62539172,199157.78742972"
43,56-19 CATALPA AVENUE,QN,3464,17,4082811,405,3,NO,SWO,NO,1930,4820372,9/10/2020,Butler/2770,I2,N,,N,,N,,40.70080948,-73.90457916,1010708.43,194611.6436,"https://nycdob.github.io/CycloMedia/simple#1010708.43001072,194611.6436349"
44,817 ONDERDONK AVENUE,QN,3472,66,4083087,405,3,NO,NO,NO,1911,4820373,9/10/2020,Butler/2770,I2,N,,N,,N,,40.7021904,-73.90393066,1010887.692,195114.95,"https://nycdob.github.io/CycloMedia/simple#1010887.69244747,195114.950042978"
45,106-38 150 STREET,QN,10089,13,4215563,412,4,Partial     (since 2012),NO,NO,1931,4820376,9/10/2020,Butler/2770,I2,N,,N,,N,,40.69501114,-73.80129242,1039352.26,192547.2226,"https://nycdob.github.io/CycloMedia/simple#1039352.25953397,192547.222566888"
46,109-02 GUY R BREWER BLVD,QN,12152,36,4263366,412,3,NO,NO,NO,1931,4820378,9/10/2020,Butler/2770,I2,N,,N,,N,,40.69475174,-73.79026794,1042409.582,192459.8428,"https://nycdob.github.io/CycloMedia/simple#1042409.58248755,192459.842820391"
